State,Short Name,City,Zip,Latitude,Longitude,tax
Colorado,CO,Denver,80252,39.7637782,-105.184397,0
Colorado,CO,Denver,80256,39.73999763,-105.0005996,8.81
Colorado,CO,Denver,80257,39.74886707,-104.9934969,8.81
Colorado,CO,Denver,80259,39.73999763,-105.0005996,8.81
Colorado,CO,Denver,80260,39.86599566,-105.047217,8.81
Colorado,CO,Denver,80261,39.73999763,-105.0005996,8.81
Colorado,CO,Denver,80262,39.71623644,-104.9764869,0
Colorado,CO,Denver,80263,39.64999763,-104.9305996,8.81
Colorado,CO,Denver,80264,39.74247697,-104.9880559,8.81
Colorado,CO,Denver,80265,39.74799597,-104.9972309,8.81
Colorado,CO,Denver,80266,39.77981308,-104.9211332,8.81
Colorado,CO,Denver,80271,39.71747102,-104.9909179,8.81
Colorado,CO,Denver,80273,39.73999763,-105.0005996,8.81
Colorado,CO,Denver,80274,39.74391998,-105.0078473,8.81
Colorado,CO,Denver,80279,39.7637782,-105.184397,0
Colorado,CO,Denver,80280,39.7637782,-105.184397,0
Colorado,CO,Denver,80281,39.73999763,-105.0005996,8.81
Colorado,CO,Denver,80290,39.74408397,-104.9893404,8.81
Colorado,CO,Denver,80291,39.73999763,-105.0005996,8.81
Colorado,CO,Denver,80293,39.74625542,-104.9925088,8.81
Colorado,CO,Denver,80294,39.74979547,-104.9922865,8.81
Colorado,CO,Denver,80299,39.74757997,-104.9942603,8.81
Michigan,MI,Detroit,48201,42.34624466,-83.08046802,6
Michigan,MI,Detroit,48202,42.37511862,-83.11856806,6
Michigan,MI,Detroit,48203,42.41761112,-83.14436706,6
Michigan,MI,Detroit,48204,42.36498512,-83.17372556,6
Michigan,MI,Detroit,48205,42.42899167,-83.01750656,6
Michigan,MI,Detroit,48206,42.37614112,-83.14963456,6
Michigan,MI,Detroit,48207,42.34882455,-83.08512472,6
Michigan,MI,Detroit,48208,42.35120308,-83.13170001,6
Michigan,MI,Detroit,48209,42.29985368,-83.15127921,6
Michigan,MI,Detroit,48210,42.33745508,-83.16680506,6
Michigan,MI,Detroit,48211,42.38308112,-83.09058506,6
Michigan,MI,Detroit,48212,42.40382857,-83.09780051,6
Michigan,MI,Detroit,48213,42.39917545,-83.07929316,6
Michigan,MI,Detroit,48214,42.36662612,-83.02597201,6
Michigan,MI,Detroit,48215,42.37173607,-82.99280201,6
Michigan,MI,Detroit,48216,42.32583808,-83.11911961,6
Michigan,MI,Detroit,48217,42.27571066,-83.17463702,6
Michigan,MI,Detroit,48219,42.42567847,-83.29436716,6
Michigan,MI,Detroit,48221,42.42796607,-83.18787461,6
Michigan,MI,Detroit,48222,42.31398681,-83.09996737,6
Michigan,MI,Detroit,48223,42.39574272,-83.28529251,6
Michigan,MI,Detroit,48224,42.41172752,-82.98066596,6
Michigan,MI,Detroit,48226,42.33047681,-83.07062762,6
Michigan,MI,Detroit,48227,42.38735907,-83.23217786,6
Michigan,MI,Detroit,48228,42.35337695,-83.29404872,6
Michigan,MI,Detroit,48230,42.37948507,-82.96235151,6
Michigan,MI,Detroit,48231,42.32977916,-83.07054607,6
Michigan,MI,Detroit,48232,42.28999766,-83.16059957,6
Michigan,MI,Detroit,48233,42.32394782,-83.06382192,6
Michigan,MI,Detroit,48234,42.42542649,-83.12675221,6
Michigan,MI,Detroit,48235,42.42693112,-83.23537951,6
Michigan,MI,Detroit,48236,42.42255857,-82.93716846,6
Michigan,MI,Detroit,48238,42.39567017,-83.17921751,6
Michigan,MI,Detroit,48242,42.21631678,-83.39822876,6
Michigan,MI,Detroit,48243,42.32997597,-83.04219932,6
Michigan,MI,Detroit,48244,42.28999766,-83.16059957,6
Michigan,MI,Detroit,48255,42.28999766,-83.16059957,6
Michigan,MI,Detroit,48260,42.28999766,-83.16059957,6
Michigan,MI,Detroit,48264,42.28999766,-83.16059957,6
Michigan,MI,Detroit,48265,42.43999761,-82.95059957,6
Michigan,MI,Detroit,48266,42.28999766,-83.16059957,6
Michigan,MI,Detroit,48267,42.28999766,-83.16059957,6
Michigan,MI,Detroit,48268,42.28999766,-83.16059957,6
Michigan,MI,Detroit,48269,42.28999766,-83.16059957,6
Michigan,MI,Detroit,48272,42.28999766,-83.16059957,6
Michigan,MI,Detroit,48275,42.28999766,-83.16059957,6
Michigan,MI,Detroit,48277,42.28999766,-83.16059957,6
Michigan,MI,Detroit,48278,42.28999766,-83.16059957,6
Michigan,MI,Detroit,48279,42.28999766,-83.16059957,6
Michigan,MI,Detroit,48288,42.38682136,-83.08824527,6
Texas,TX,El Paso,79835,31.9443183,-106.6717692,7.25
Texas,TX,El Paso,79901,31.76162432,-106.5262927,8.25
Texas,TX,El Paso,79902,31.79547832,-106.5385167,8.25
Texas,TX,El Paso,79903,31.78615237,-106.4867522,8.25
Texas,TX,El Paso,79904,31.87458743,-106.5345808,8.25
Texas,TX,El Paso,79905,31.76355538,-106.5146098,8.25
Texas,TX,El Paso,79906,31.81065396,-106.4853618,8.25
Texas,TX,El Paso,79907,31.71172095,-106.4020783,8.25
Texas,TX,El Paso,79908,31.82577581,-106.4270946,8.25
Texas,TX,El Paso,79910,31.79502092,-106.379224,8.25
Texas,TX,El Paso,79911,31.90463941,-106.6255561,8.25
Texas,TX,El Paso,79912,31.85107904,-106.6204034,8.25
Texas,TX,El Paso,79913,31.83867244,-106.581997,8.25
Texas,TX,El Paso,79914,31.88164414,-106.4407999,8.25
Texas,TX,El Paso,79915,31.74517827,-106.4140316,8.25
Texas,TX,El Paso,79917,31.70696134,-106.3356694,8.25
Texas,TX,El Paso,79920,31.81368824,-106.4647211,8.25
Texas,TX,El Paso,79922,31.80360196,-106.6378228,8.25
Texas,TX,El Paso,79923,31.78189469,-106.4799726,8.25
Texas,TX,El Paso,79924,31.90518941,-106.4982978,8.25
Texas,TX,El Paso,79925,31.79556951,-106.4603093,8.25
Texas,TX,El Paso,79926,31.76629069,-106.3879576,8.25
Texas,TX,El Paso,79927,31.64560848,-106.3566843,8.25
Texas,TX,El Paso,79928,31.63401556,-106.5816658,8.25
Texas,TX,El Paso,79929,31.68999784,-106.1805996,8.25
Texas,TX,El Paso,79930,31.81371436,-106.5091897,8.25
Texas,TX,El Paso,79931,31.81318419,-106.4652201,8.25
Texas,TX,El Paso,79932,31.87838986,-106.6492963,8.25
Texas,TX,El Paso,79934,31.95692105,-106.5626642,8.25
Texas,TX,El Paso,79935,31.76968882,-106.3732427,8.25
Texas,TX,El Paso,79936,31.77577847,-106.3926247,8.25
Texas,TX,El Paso,79937,31.77520349,-106.3602015,8.25
Texas,TX,El Paso,79938,31.80286332,-106.5986367,8.25
Texas,TX,El Paso,79940,31.75662429,-106.5058993,8.25
Texas,TX,El Paso,79941,31.75999784,-106.5105996,8.25
Texas,TX,El Paso,79942,31.8116271,-106.7472191,8.25
Texas,TX,El Paso,79943,31.75999784,-106.5105996,8.25
Texas,TX,El Paso,79944,31.75999784,-106.5105996,8.25
Texas,TX,El Paso,79945,31.75999784,-106.5105996,8.25
Texas,TX,El Paso,79946,31.75999784,-106.5105996,8.25
Texas,TX,El Paso,79947,31.75999784,-106.5105996,8.25
Texas,TX,El Paso,79948,31.75999784,-106.5105996,8.25
Texas,TX,El Paso,79949,31.75999784,-106.5105996,8.25
Texas,TX,El Paso,79950,31.75999784,-106.5105996,8.25
Texas,TX,El Paso,79951,31.75999784,-106.5105996,8.25
Texas,TX,El Paso,79952,31.75999784,-106.5105996,8.25
Texas,TX,El Paso,79953,31.75999784,-106.5105996,8.25
Texas,TX,El Paso,79954,31.75999784,-106.5105996,8.25
Texas,TX,El Paso,79955,31.75999784,-106.5105996,8.25
Texas,TX,El Paso,79958,31.75999784,-106.5105996,8.25
Texas,TX,El Paso,79960,31.75999784,-106.5105996,8.25
Texas,TX,El Paso,79961,31.75999784,-106.5105996,8.25
Texas,TX,El Paso,79968,31.77015859,-106.5253592,8.25
Texas,TX,El Paso,79976,31.75999784,-106.5105996,8.25
Texas,TX,El Paso,79978,31.75999784,-106.5105996,8.25
Texas,TX,El Paso,79980,31.75999784,-106.5105996,8.25
Texas,TX,El Paso,79995,31.76999784,-106.4505996,8.25
Texas,TX,El Paso,79996,31.77209209,-106.3239868,8.25
Texas,TX,El Paso,79997,31.76999784,-106.4505996,8.25
Texas,TX,El Paso,79998,31.76999784,-106.4505996,8.25
Texas,TX,El Paso,79999,31.76999784,-106.4505996,8.25
Texas,TX,El Paso,88513,31.76999784,-106.4505996,8.25
Texas,TX,El Paso,88520,31.76999784,-106.4505996,8.25
Texas,TX,El Paso,88531,31.76999784,-106.4505996,8.25
Texas,TX,El Paso,88539,31.76999784,-106.4505996,8.25
Texas,TX,El Paso,88540,31.8116271,-106.7472191,8.25
Texas,TX,El Paso,88541,31.76999784,-106.4505996,8.25
Texas,TX,El Paso,88542,31.76999784,-106.4505996,8.25
Texas,TX,El Paso,88543,31.76999784,-106.4505996,8.25
Texas,TX,El Paso,88547,31.76999784,-106.4505996,8.25
Texas,TX,El Paso,88550,31.76999784,-106.4505996,8.25
Texas,TX,El Paso,88554,31.76999784,-106.4505996,8.25
Texas,TX,El Paso,88565,31.76999784,-106.4505996,8.25
Texas,TX,El Paso,88574,31.76999784,-106.4505996,8.25
Texas,TX,El Paso,88575,31.76999784,-106.4505996,8.25
Texas,TX,El Paso,88576,31.76999784,-106.4505996,8.25
Texas,TX,El Paso,88587,31.76999784,-106.4505996,8.25
Texas,TX,El Paso,88588,31.76999784,-106.4505996,8.25
Texas,TX,El Paso,88589,31.80999784,-106.4405996,8.25
Texas,TX,El Paso,88590,31.76999784,-106.4505996,8.25
Texas,TX,Fort Worth,76101,32.74659602,-97.3497987,8.25
Texas,TX,Fort Worth,76102,32.75943326,-97.37396717,8.25
Texas,TX,Fort Worth,76103,32.75565331,-97.31543262,8.25
Texas,TX,Fort Worth,76104,32.72568066,-97.36246102,8.25
Texas,TX,Fort Worth,76105,32.72419176,-97.30855167,8.25
Texas,TX,Fort Worth,76106,32.80833997,-97.44149373,8.25
Texas,TX,Fort Worth,76107,32.74032799,-97.46235829,8.25
Texas,TX,Fort Worth,76108,32.84475144,-97.66630802,8.25
Texas,TX,Fort Worth,76109,32.70270261,-97.47279529,8.25
Texas,TX,Fort Worth,76110,32.739263,-97.42126619,8.25
Texas,TX,Fort Worth,76111,32.77951376,-97.34194362,8.25
Texas,TX,Fort Worth,76112,32.74724966,-97.25664557,8.25
Texas,TX,Fort Worth,76113,32.74659602,-97.3497987,8.25
Texas,TX,Fort Worth,76114,32.78044098,-97.48011874,8.25
Texas,TX,Fort Worth,76115,32.68198827,-97.37246512,8.25
Texas,TX,Fort Worth,76116,32.72487105,-97.54146319,8.25
Texas,TX,Fort Worth,76117,32.79555616,-97.30193262,8.25
Texas,TX,Fort Worth,76118,32.79052603,-97.42938098,8.25
Texas,TX,Fort Worth,76119,32.69098412,-97.34328624,8.25
Texas,TX,Fort Worth,76120,32.76307621,-97.22255662,8.25
Texas,TX,Fort Worth,76121,32.73117072,-97.4714422,8.25
Texas,TX,Fort Worth,76122,32.68129892,-97.370598,8.25
Texas,TX,Fort Worth,76123,32.62601169,-97.48293474,8.25
Texas,TX,Fort Worth,76124,32.74999782,-97.2405996,8.25
Texas,TX,Fort Worth,76126,32.6351553,-97.67269951,8.25
Texas,TX,Fort Worth,76129,32.70937992,-97.36477592,8.25
Texas,TX,Fort Worth,76130,32.72999772,-97.3405995,8.25
Texas,TX,Fort Worth,76131,32.89243343,-97.42954718,8.25
Texas,TX,Fort Worth,76132,32.66429948,-97.49822274,8.25
Texas,TX,Fort Worth,76133,32.65862122,-97.42430418,8.25
Texas,TX,Fort Worth,76134,32.63900372,-97.36435163,8.25
Texas,TX,Fort Worth,76135,32.74364947,-97.6223088,8.25
Texas,TX,Fort Worth,76136,32.81344561,-97.4535593,8.25
Texas,TX,Fort Worth,76137,32.79042858,-97.48348943,8.25
Texas,TX,Fort Worth,76140,32.61750155,-97.34997114,8.25
Texas,TX,Fort Worth,76147,32.75004692,-97.3806511,8.25
Texas,TX,Fort Worth,76148,32.86721525,-97.29333257,8.25
Texas,TX,Fort Worth,76150,32.72999772,-97.3405995,8.25
Texas,TX,Fort Worth,76155,32.8251068,-97.09175512,8.25
Texas,TX,Fort Worth,76161,32.82525747,-97.32371682,8.25
Texas,TX,Fort Worth,76162,32.64999782,-97.4005996,8.25
Texas,TX,Fort Worth,76163,32.65003682,-97.3932676,8.25
Texas,TX,Fort Worth,76164,32.77844581,-97.39833107,8.25
Texas,TX,Fort Worth,76166,32.72999772,-97.3405995,8.25
Texas,TX,Fort Worth,76177,32.88473942,-97.49818942,8.25
Texas,TX,Fort Worth,76179,32.90718188,-97.59642046,8.25
Texas,TX,Fort Worth,76180,32.83495395,-97.30274613,8.25
Texas,TX,Fort Worth,76181,32.79404931,-97.2378835,8.25
Texas,TX,Fort Worth,76182,32.88576175,-97.25323017,8.25
Texas,TX,Fort Worth,76185,32.75093782,-97.3856196,8.25
Texas,TX,Fort Worth,76190,32.75547202,-97.3513356,8.25
Texas,TX,Fort Worth,76191,32.80999781,-97.3705996,8.25
Texas,TX,Fort Worth,76192,32.92999781,-97.4605996,8.25
Texas,TX,Fort Worth,76193,32.72999772,-97.3405995,8.25
Texas,TX,Fort Worth,76195,32.72999772,-97.3405995,8.25
Texas,TX,Fort Worth,76196,32.72999772,-97.3405995,8.25
Texas,TX,Fort Worth,76197,32.77999781,-97.3205996,8.25
Texas,TX,Fort Worth,76198,32.72999772,-97.3405995,8.25
Texas,TX,Fort Worth,76199,32.72999772,-97.3405995,8.25
Texas,TX,Fort Worth,76244,32.93146646,-97.36048718,8.25
Texas,TX,Houston,77001,29.76999795,-95.39059961,8.25
Texas,TX,Houston,77002,29.75102717,-95.4087457,8.25
Texas,TX,Houston,77003,29.74907107,-95.38504116,8.25
Texas,TX,Houston,77004,29.72696162,-95.40400111,8.25
Texas,TX,Houston,77005,29.71626917,-95.45978771,8.25
Texas,TX,Houston,77006,29.7393934,-95.40998556,8.25
Texas,TX,Houston,77007,29.77115056,-95.48710916,8.25
Texas,TX,Houston,77008,29.79758021,-95.4607506,8.25
Texas,TX,Houston,77009,29.79293995,-95.47002986,8.25
Texas,TX,Houston,77010,29.7532424,-95.36498831,8.25
Texas,TX,Houston,77011,29.73924107,-95.34812971,8.25
Texas,TX,Houston,77012,29.72405412,-95.30785716,8.25
Texas,TX,Houston,77013,29.79738461,-95.2830667,8.25
Texas,TX,Houston,77014,29.98457659,-95.50198255,8.25
Texas,TX,Houston,77015,29.82998966,-95.36897555,8.25
Texas,TX,Houston,77016,29.85564271,-95.53320609,8.25
Texas,TX,Houston,77017,29.68253546,-95.7732422,8.25
Texas,TX,Houston,77018,29.82654406,-95.4663492,8.25
Texas,TX,Houston,77019,29.75281707,-95.4511591,8.25
Texas,TX,Houston,77020,29.77302462,-95.3598477,8.25
Texas,TX,Houston,77021,29.69460408,-95.39839916,8.25
Texas,TX,Houston,77022,29.83085811,-95.41829565,8.25
Texas,TX,Houston,77023,29.72096367,-95.35540761,8.25
Texas,TX,Houston,77024,29.77766822,-95.64988496,8.25
Texas,TX,Houston,77025,29.68283763,-95.47334516,8.25
Texas,TX,Houston,77026,29.75261087,-95.53941301,8.25
Texas,TX,Houston,77027,29.74197235,-95.46518601,8.25
Texas,TX,Houston,77028,29.82207421,-95.3351942,8.25
Texas,TX,Houston,77029,29.76477246,-95.33788586,8.25
Texas,TX,Houston,77030,29.70802807,-95.44373866,8.25
Texas,TX,Houston,77031,29.65649618,-95.59077326,8.25
Texas,TX,Houston,77032,29.95455202,-95.41989085,8.25
Texas,TX,Houston,77033,29.66978118,-95.37822566,8.25
Texas,TX,Houston,77034,29.69184538,-95.74653144,8.25
Texas,TX,Houston,77035,29.65146052,-95.56358982,8.25
Texas,TX,Houston,77036,29.69254213,-95.56990371,8.25
Texas,TX,Houston,77037,29.900829,-95.4323192,8.25
Texas,TX,Houston,77038,29.9192661,-95.48894665,8.25
Texas,TX,Houston,77039,29.91242394,-95.41943031,8.25
Texas,TX,Houston,77040,29.85588061,-95.61318254,8.25
Texas,TX,Houston,77041,29.88992482,-95.7850045,8.25
Texas,TX,Houston,77042,29.74103462,-95.60544266,8.25
Texas,TX,Houston,77043,29.81687106,-95.61567715,8.25
Texas,TX,Houston,77044,29.79452052,-95.65372952,8.25
Texas,TX,Houston,77045,29.64183058,-95.50867137,8.25
Texas,TX,Houston,77046,29.73427836,-95.44643516,8.25
Texas,TX,Houston,77047,29.61423354,-95.47345582,8.25
Texas,TX,Houston,77048,29.64228203,-95.40912087,8.25
Texas,TX,Houston,77049,29.86751163,-95.34288904,8.25
Texas,TX,Houston,77050,29.90279905,-95.31283515,8.25
Texas,TX,Houston,77051,29.65927658,-95.42392171,8.25
Texas,TX,Houston,77052,29.75753195,-95.38111931,8.25
Texas,TX,Houston,77053,29.58364651,-95.54808882,8.25
Texas,TX,Houston,77054,29.68141968,-95.44946361,8.25
Texas,TX,Houston,77055,29.78655845,-95.58952126,8.25
Texas,TX,Houston,77056,29.74845345,-95.48766701,8.25
Texas,TX,Houston,77057,29.7481899,-95.51108406,8.25
Texas,TX,Houston,77058,29.56953702,-95.16375542,8.25
Texas,TX,Houston,77059,29.6088051,-95.20738177,8.25
Texas,TX,Houston,77060,29.93434809,-95.43997865,8.25
Texas,TX,Houston,77061,29.65458018,-95.32430771,8.25
Texas,TX,Houston,77062,29.57214514,-95.17478726,8.25
Texas,TX,Houston,77063,29.73999112,-95.56374916,8.25
Texas,TX,Houston,77064,29.92908443,-95.62514841,8.25
Texas,TX,Houston,77065,29.92672093,-95.71652781,8.25
Texas,TX,Houston,77066,29.96085694,-95.58617298,8.25
Texas,TX,Houston,77067,29.85274862,-95.59628549,8.25
Texas,TX,Houston,77068,29.87302317,-95.56069549,8.25
Texas,TX,Houston,77069,29.84934427,-95.68775894,8.25
Texas,TX,Houston,77070,29.9766939,-95.65759125,8.25
Texas,TX,Houston,77071,29.65185196,-95.54283651,8.25
Texas,TX,Houston,77072,29.75240688,-95.71429961,8.25
Texas,TX,Houston,77073,29.99584959,-95.4344962,8.25
Texas,TX,Houston,77074,29.68995713,-95.56809621,8.25
Texas,TX,Houston,77075,29.65045078,-95.71488057,8.25
Texas,TX,Houston,77076,29.86181505,-95.42649715,8.25
Texas,TX,Houston,77077,29.7549419,-95.8098816,8.25
Texas,TX,Houston,77078,29.85146311,-95.29984015,8.25
Texas,TX,Houston,77079,29.76539931,-95.81279619,8.25
Texas,TX,Houston,77080,29.81518266,-95.56263865,8.25
Texas,TX,Houston,77081,29.70583507,-95.58221707,8.25
Texas,TX,Houston,77082,29.68255797,-95.74836452,8.25
Texas,TX,Houston,77083,29.69159263,-95.69205171,8.25
Texas,TX,Houston,77084,29.83206648,-95.73055376,8.25
Texas,TX,Houston,77085,29.75041538,-95.67167096,8.25
Texas,TX,Houston,77086,29.91931343,-95.57669253,8.25
Texas,TX,Houston,77087,29.68576023,-95.34059916,8.25
Texas,TX,Houston,77088,29.8814214,-95.54054176,8.25
Texas,TX,Houston,77089,29.58865011,-95.30466827,8.25
Texas,TX,Houston,77090,29.9077785,-95.71789988,8.25
Texas,TX,Houston,77091,29.85839147,-95.52998026,8.25
Texas,TX,Houston,77092,29.83020401,-95.5158177,8.25
Texas,TX,Houston,77093,29.85724805,-95.37976215,8.25
Texas,TX,Houston,77094,29.76219542,-95.76063476,8.25
Texas,TX,Houston,77095,29.9118826,-95.69357465,8.25
Texas,TX,Houston,77096,29.67355363,-95.51966366,8.25
Texas,TX,Houston,77098,29.73510936,-95.43707601,8.25
Texas,TX,Houston,77099,29.66675163,-95.62864391,8.25
Texas,TX,Houston,77201,29.76667848,-95.36696527,8.25
Texas,TX,Houston,77202,29.7599979,-95.38059961,8.25
Texas,TX,Houston,77203,29.7599979,-95.38059961,8.25
Texas,TX,Houston,77204,29.70974599,-95.46468831,8.25
Texas,TX,Houston,77205,29.97999795,-95.36059961,8.25
Texas,TX,Houston,77206,29.8299979,-95.45059961,8.25
Texas,TX,Houston,77207,29.68999796,-95.32059961,8.25
Texas,TX,Houston,77208,29.74459125,-95.38890731,8.25
Texas,TX,Houston,77209,29.61999791,-95.21059961,8.25
Texas,TX,Houston,77210,29.76999795,-95.39059961,8.25
Texas,TX,Houston,77212,29.7599979,-95.38059961,8.25
Texas,TX,Houston,77213,29.7845353,-95.23932351,8.25
Texas,TX,Houston,77215,29.72987191,-95.53824541,8.25
Texas,TX,Houston,77216,29.7599979,-95.38059961,8.25
Texas,TX,Houston,77217,29.67535526,-95.26761761,8.25
Texas,TX,Houston,77218,29.77999795,-95.69059961,8.25
Texas,TX,Houston,77219,29.75311475,-95.42289611,8.25
Texas,TX,Houston,77220,29.77293475,-95.33311671,8.25
Texas,TX,Houston,77221,29.69769671,-95.35696511,8.25
Texas,TX,Houston,77222,29.8299979,-95.40059961,8.25
Texas,TX,Houston,77223,29.72762751,-95.34128711,8.25
Texas,TX,Houston,77224,29.78221105,-95.57684331,8.25
Texas,TX,Houston,77225,29.69281696,-95.43815961,8.25
Texas,TX,Houston,77226,29.7950791,-95.36264801,8.25
Texas,TX,Houston,77227,29.73999795,-95.46059961,8.25
Texas,TX,Houston,77228,29.8199979,-95.31059961,8.25
Texas,TX,Houston,77229,29.7845353,-95.23932351,8.25
Texas,TX,Houston,77230,29.69999796,-95.41059961,8.25
Texas,TX,Houston,77231,29.65136606,-95.50255541,8.25
Texas,TX,Houston,77233,29.7599979,-95.38059961,8.25
Texas,TX,Houston,77234,29.62521561,-95.24145651,8.25
Texas,TX,Houston,77235,29.65136606,-95.50255541,8.25
Texas,TX,Houston,77236,29.70723926,-95.51740881,8.25
Texas,TX,Houston,77237,29.73413201,-95.51976521,8.25
Texas,TX,Houston,77238,29.9199979,-95.46059961,8.25
Texas,TX,Houston,77240,29.8743397,-95.56912911,8.25
Texas,TX,Houston,77241,29.8743397,-95.56912911,8.25
Texas,TX,Houston,77242,29.73111556,-95.58028611,8.25
Texas,TX,Houston,77243,29.81591005,-95.54050591,8.25
Texas,TX,Houston,77244,29.74618815,-95.62554851,8.25
Texas,TX,Houston,77245,29.60999796,-95.44059961,8.25
Texas,TX,Houston,77248,29.7897908,-95.41931091,8.25
Texas,TX,Houston,77249,29.80365635,-95.39328891,8.25
Texas,TX,Houston,77251,29.69999796,-95.56059961,8.25
Texas,TX,Houston,77252,29.76999795,-95.39059961,8.25
Texas,TX,Houston,77253,29.76999795,-95.39059961,8.25
Texas,TX,Houston,77254,29.67999791,-95.43059961,8.25
Texas,TX,Houston,77255,29.80294505,-95.50976381,8.25
Texas,TX,Houston,77256,29.73999795,-95.46059961,8.25
Texas,TX,Houston,77257,29.73413201,-95.51976521,8.25
Texas,TX,Houston,77258,29.54851746,-95.10959601,8.25
Texas,TX,Houston,77259,29.57632391,-95.16090581,8.25
Texas,TX,Houston,77261,29.72762751,-95.34128711,8.25
Texas,TX,Houston,77262,29.72762751,-95.34128711,8.25
Texas,TX,Houston,77263,29.72989281,-95.53824471,8.25
Texas,TX,Houston,77265,29.71999736,-95.46059911,8.25
Texas,TX,Houston,77266,29.73439666,-95.41561921,8.25
Texas,TX,Houston,77267,29.94999795,-95.46059961,8.25
Texas,TX,Houston,77268,29.9908733,-95.50240331,8.25
Texas,TX,Houston,77269,29.9599679,-95.57932551,8.25
Texas,TX,Houston,77270,29.7599979,-95.38059961,8.25
Texas,TX,Houston,77271,29.759881,-95.39069931,8.25
Texas,TX,Houston,77272,29.68885766,-95.60541641,8.25
Texas,TX,Houston,77273,30.01879775,-95.46583041,8.25
Texas,TX,Houston,77274,29.70727046,-95.51742681,8.25
Texas,TX,Houston,77275,29.62749336,-95.25999721,8.25
Texas,TX,Houston,77277,29.74618815,-95.62554851,8.25
Texas,TX,Houston,77279,29.78289335,-95.66234521,8.25
Texas,TX,Houston,77280,29.81591005,-95.54050591,8.25
Texas,TX,Houston,77282,29.74618815,-95.62554851,8.25
Texas,TX,Houston,77284,29.7599979,-95.38059961,8.25
Texas,TX,Houston,77287,29.67535526,-95.26761761,8.25
Texas,TX,Houston,77288,29.73227416,-95.39614571,8.25
Texas,TX,Houston,77289,29.57632391,-95.16090581,8.25
Texas,TX,Houston,77290,30.01871215,-95.46558061,8.25
Texas,TX,Houston,77291,29.9199979,-95.46059961,8.25
Texas,TX,Houston,77292,29.8299979,-95.45059961,8.25
Texas,TX,Houston,77293,29.86990515,-95.35046711,8.25
Texas,TX,Houston,77297,29.7599979,-95.38059961,8.25
Texas,TX,Houston,77298,29.83445725,-96.12062265,0
Texas,TX,Houston,77299,29.7599979,-95.38059961,8.25
Indiana,IN,Indianapolis,46201,39.77445647,-86.15094234,7
Indiana,IN,Indianapolis,46202,39.78538262,-86.20522974,7
Indiana,IN,Indianapolis,46203,39.72812427,-86.1803188,7
Indiana,IN,Indianapolis,46204,39.77276133,-86.17837238,7
Indiana,IN,Indianapolis,46205,39.82367401,-86.17103659,7
Indiana,IN,Indianapolis,46206,39.75956137,-86.16368487,7
Indiana,IN,Indianapolis,46207,39.75999763,-86.18059958,7
Indiana,IN,Indianapolis,46208,39.83394046,-86.21590619,7
Indiana,IN,Indianapolis,46209,39.70997988,-86.27898608,7
Indiana,IN,Indianapolis,46210,39.77931821,-86.4623946,0
Indiana,IN,Indianapolis,46211,39.77931821,-86.4623946,0
Indiana,IN,Indianapolis,46213,39.78869287,-86.19510102,7
Indiana,IN,Indianapolis,46214,39.79202277,-86.33064729,7
Indiana,IN,Indianapolis,46216,39.86656766,-86.05469504,7
Indiana,IN,Indianapolis,46217,39.67818103,-86.27747386,7
Indiana,IN,Indianapolis,46218,39.80635146,-86.1819984,7
Indiana,IN,Indianapolis,46219,39.78405871,-86.1270183,7
Indiana,IN,Indianapolis,46220,39.8659866,-86.1840829,7
Indiana,IN,Indianapolis,46221,39.69743723,-86.31907546,7
Indiana,IN,Indianapolis,46222,39.79027822,-86.25019204,7
Indiana,IN,Indianapolis,46223,39.77931821,-86.4623946,7
Indiana,IN,Indianapolis,46224,39.79272662,-86.29608129,7
Indiana,IN,Indianapolis,46225,39.74101277,-86.20937484,7
Indiana,IN,Indianapolis,46226,39.8401548,-86.1367609,7
Indiana,IN,Indianapolis,46227,39.67900232,-86.17013109,7
Indiana,IN,Indianapolis,46228,39.84609761,-86.23606859,7
Indiana,IN,Indianapolis,46229,39.78918031,-86.05394525,7
Indiana,IN,Indianapolis,46230,39.86994853,-86.16049438,7
Indiana,IN,Indianapolis,46231,39.71248843,-86.40519451,7
Indiana,IN,Indianapolis,46234,39.81077866,-86.42200015,7
Indiana,IN,Indianapolis,46235,39.84430926,-86.01532999,7
Indiana,IN,Indianapolis,46236,39.88427936,-86.01426539,7
Indiana,IN,Indianapolis,46237,39.67950798,-86.17099351,7
Indiana,IN,Indianapolis,46239,39.72213977,-86.0831198,7
Indiana,IN,Indianapolis,46240,39.90483214,-86.1982919,7
Indiana,IN,Indianapolis,46241,39.71403728,-86.34386891,7
Indiana,IN,Indianapolis,46242,39.72999753,-86.28059958,7
Indiana,IN,Indianapolis,46244,39.76999763,-86.18059958,7
Indiana,IN,Indianapolis,46247,39.66999763,-86.15059958,7
Indiana,IN,Indianapolis,46249,39.85289464,-86.0192061,7
Indiana,IN,Indianapolis,46250,39.90622996,-86.10895454,7
Indiana,IN,Indianapolis,46251,39.72999753,-86.29059958,7
Indiana,IN,Indianapolis,46253,39.71999763,-86.22059958,7
Indiana,IN,Indianapolis,46254,39.84382145,-86.34851685,7
Indiana,IN,Indianapolis,46255,39.76706488,-86.18054728,7
Indiana,IN,Indianapolis,46256,39.90513649,-86.07338845,7
Indiana,IN,Indianapolis,46259,39.64345704,-86.07756036,7
Indiana,IN,Indianapolis,46260,39.89828631,-86.22377254,7
Indiana,IN,Indianapolis,46262,39.76797108,-86.17650268,7
Indiana,IN,Indianapolis,46266,39.77931821,-86.4623946,0
Indiana,IN,Indianapolis,46268,39.90088731,-86.27552739,7
Indiana,IN,Indianapolis,46274,39.77931821,-86.4623946,0
Indiana,IN,Indianapolis,46275,39.77931821,-86.4623946,0
Indiana,IN,Indianapolis,46277,39.76694803,-86.17052218,7
Indiana,IN,Indianapolis,46278,39.89492256,-86.33775979,7
Indiana,IN,Indianapolis,46280,39.94174968,-86.19386884,7
Indiana,IN,Indianapolis,46282,39.75999763,-86.18059958,7
Indiana,IN,Indianapolis,46283,39.76157778,-86.14295748,7
Indiana,IN,Indianapolis,46285,39.74515949,-86.18821819,7
Indiana,IN,Indianapolis,46288,39.77931821,-86.4623946,7
Indiana,IN,Indianapolis,46290,39.93427408,-86.17964603,7
Indiana,IN,Indianapolis,46291,39.77931821,-86.4623946,0
Indiana,IN,Indianapolis,46295,39.77931821,-86.4623946,0
Indiana,IN,Indianapolis,46296,39.77931821,-86.4623946,0
Indiana,IN,Indianapolis,46298,39.91516093,-86.24799888,7
Florida,FL,Jacksonville,32099,30.3410288,-81.77382876,7.5
Florida,FL,Jacksonville,32201,30.34312709,-81.67479141,7.5
Florida,FL,Jacksonville,32202,30.32803609,-81.6891532,7.5
Florida,FL,Jacksonville,32203,30.33705047,-81.67375477,7.5
Florida,FL,Jacksonville,32204,30.31484484,-81.70254756,7.5
Florida,FL,Jacksonville,32205,30.30254219,-81.80674369,7.5
Florida,FL,Jacksonville,32206,30.35077609,-81.68259525,7.5
Florida,FL,Jacksonville,32207,30.30604164,-81.73645834,7.5
Florida,FL,Jacksonville,32208,30.39548654,-81.76269074,7.5
Florida,FL,Jacksonville,32209,30.36439954,-81.7384576,7.5
Florida,FL,Jacksonville,32210,30.26849186,-81.91385442,7.5
Florida,FL,Jacksonville,32211,30.33778559,-81.6260011,7.5
Florida,FL,Jacksonville,32212,30.21672001,-81.71954405,7.5
Florida,FL,Jacksonville,32214,30.22301255,-81.70266574,7.5
Florida,FL,Jacksonville,32216,30.2790236,-81.62675465,7.5
Florida,FL,Jacksonville,32217,30.24035272,-81.70794529,7.5
Florida,FL,Jacksonville,32218,30.48382642,-81.83805189,7.5
Florida,FL,Jacksonville,32219,30.43994151,-81.9656514,7.5
Florida,FL,Jacksonville,32220,30.36554566,-82.01283996,7.5
Florida,FL,Jacksonville,32221,30.23897287,-82.01514598,7.5
Florida,FL,Jacksonville,32222,30.21740651,-81.87282915,7.5
Florida,FL,Jacksonville,32223,30.15584171,-81.72622085,7.5
Florida,FL,Jacksonville,32224,30.2768867,-81.55516239,7.5
Florida,FL,Jacksonville,32225,30.35636621,-81.58073629,7.5
Florida,FL,Jacksonville,32226,30.42586904,-81.68200045,7.5
Florida,FL,Jacksonville,32227,30.38826399,-81.44886215,7.5
Florida,FL,Jacksonville,32228,30.38786788,-81.42924961,7.5
Florida,FL,Jacksonville,32229,30.50248338,-81.68783541,7.5
Florida,FL,Jacksonville,32231,30.31999789,-81.44059961,7.5
Florida,FL,Jacksonville,32232,30.31999789,-81.44059961,7.5
Florida,FL,Jacksonville,32233,30.36591564,-81.4682896,7.5
Florida,FL,Jacksonville,32234,30.19950745,-82.16389599,7.5
Florida,FL,Jacksonville,32235,30.35687114,-81.53945421,7.5
Florida,FL,Jacksonville,32236,30.31208184,-81.75807781,7.5
Florida,FL,Jacksonville,32237,30.3433355,-82.34253803,0
Florida,FL,Jacksonville,32238,30.24999794,-81.76059961,7.5
Florida,FL,Jacksonville,32239,30.31376789,-81.61906961,7.5
Florida,FL,Jacksonville,32241,30.14999794,-81.65059961,7.5
Florida,FL,Jacksonville,32244,30.21847191,-81.90955198,7.5
Florida,FL,Jacksonville,32245,30.25359219,-81.60465271,7.5
Florida,FL,Jacksonville,32246,30.28716327,-81.72343692,7.5
Florida,FL,Jacksonville,32247,30.33218169,-81.67625061,7.5
Florida,FL,Jacksonville,32250,30.2799887,-81.50011979,7.5
Florida,FL,Jacksonville,32254,30.34471609,-81.77486525,7.5
Florida,FL,Jacksonville,32255,30.33218169,-81.67625061,7.5
Florida,FL,Jacksonville,32256,30.31814566,-81.67758202,7.5
Florida,FL,Jacksonville,32257,30.19523974,-81.70274529,7.5
Florida,FL,Jacksonville,32258,30.14467782,-81.62358635,7.5
Florida,FL,Jacksonville,32259,30.06479423,-81.73734196,6.5
Florida,FL,Jacksonville,32260,30.07999789,-81.60059961,6.5
Florida,FL,Jacksonville,32266,30.315994,-81.4546817,7.5
Florida,FL,Jacksonville,32277,30.3748381,-81.67252924,7.5
Florida,FL,Jacksonville,32290,30.3433355,-82.34253803,0
California,CA,Los Angeles,90001,33.96879233,-118.2689901,9.5
California,CA,Los Angeles,90002,33.94899459,-118.2870337,9.5
California,CA,Los Angeles,90003,33.96577454,-118.3152628,9.5
California,CA,Los Angeles,90004,34.07612358,-118.3519707,9.5
California,CA,Los Angeles,90005,34.05941558,-118.3520397,9.5
California,CA,Los Angeles,90006,34.04761183,-118.3128216,9.5
California,CA,Los Angeles,90007,34.02653358,-118.3255957,9.5
California,CA,Los Angeles,90008,34.00924568,-118.3870501,9.5
California,CA,Los Angeles,90009,33.95322592,-118.3894792,9.5
California,CA,Los Angeles,90010,34.06131763,-118.3525382,9.5
California,CA,Los Angeles,90011,34.00852468,-118.2790865,9.5
California,CA,Los Angeles,90012,34.07059973,-118.2612511,9.5
California,CA,Los Angeles,90013,34.04524033,-118.2623938,9.5
California,CA,Los Angeles,90014,34.04266972,-118.2618827,9.5
California,CA,Los Angeles,90015,34.03949028,-118.2866527,9.5
California,CA,Los Angeles,90016,34.02779198,-118.4000272,9.5
California,CA,Los Angeles,90017,34.05229723,-118.2848462,9.5
California,CA,Los Angeles,90018,34.03047128,-118.3382337,9.5
California,CA,Los Angeles,90019,34.04802863,-118.3826097,9.5
California,CA,Los Angeles,90020,34.06644308,-118.3522322,9.5
California,CA,Los Angeles,90021,34.02977978,-118.2611791,9.5
California,CA,Los Angeles,90022,34.02865453,-118.2010527,9.5
California,CA,Los Angeles,90023,34.02420258,-118.2421337,9.5
California,CA,Los Angeles,90024,34.06580108,-118.4782087,9.5
California,CA,Los Angeles,90025,34.04677958,-118.4847437,9.5
California,CA,Los Angeles,90026,34.07776503,-118.3021883,9.5
California,CA,Los Angeles,90027,34.12577757,-118.3385312,9.5
California,CA,Los Angeles,90028,34.10058578,-118.3485857,9.5
California,CA,Los Angeles,90029,34.09010578,-118.3145856,9.5
California,CA,Los Angeles,90030,34.05999773,-118.2605996,9.5
California,CA,Los Angeles,90031,34.07969118,-118.2587376,9.5
California,CA,Los Angeles,90032,34.08126958,-118.2202652,9.5
California,CA,Los Angeles,90033,34.05018523,-118.2319787,9.5
California,CA,Los Angeles,90034,34.02920258,-118.4408882,9.5
California,CA,Los Angeles,90035,34.05217358,-118.4269682,9.5
California,CA,Los Angeles,90036,34.06914378,-118.3712837,9.5
California,CA,Los Angeles,90037,34.00368108,-118.3081716,9.5
California,CA,Los Angeles,90038,34.08823868,-118.3477487,9.5
California,CA,Los Angeles,90039,34.11749917,-118.2939957,9.5
California,CA,Los Angeles,90040,33.99398913,-118.1936777,9.5
California,CA,Los Angeles,90041,34.13394757,-118.2461677,9.5
California,CA,Los Angeles,90042,34.11238552,-118.2317102,9.5
California,CA,Los Angeles,90043,33.98546258,-118.3792046,9.5
California,CA,Los Angeles,90044,33.95314264,-118.3369581,9.5
California,CA,Los Angeles,90045,33.95322154,-118.4431876,9.5
California,CA,Los Angeles,90046,34.10629562,-118.4117713,9.5
California,CA,Los Angeles,90047,33.95272704,-118.3504111,9.5
California,CA,Los Angeles,90048,34.06978378,-118.3966441,9.5
California,CA,Los Angeles,90049,34.08684787,-118.5322327,9.5
California,CA,Los Angeles,90050,34.12060858,-118.2242317,9.5
California,CA,Los Angeles,90051,33.94999778,-118.2705996,9.5
California,CA,Los Angeles,90052,33.97830584,-118.2640483,9.5
California,CA,Los Angeles,90053,34.04998478,-118.260585,9.5
California,CA,Los Angeles,90054,34.05999773,-118.2605996,9.5
California,CA,Los Angeles,90055,34.03836878,-118.2790013,9.5
California,CA,Los Angeles,90056,34.02393392,-118.3924471,9.5
California,CA,Los Angeles,90057,34.06233062,-118.2857533,9.5
California,CA,Los Angeles,90058,34.01264863,-118.2472322,9.5
California,CA,Los Angeles,90059,33.92131609,-118.2863237,9.5
California,CA,Los Angeles,90060,34.05999773,-118.2605996,9.5
California,CA,Los Angeles,90061,33.92044724,-118.2952711,9.5
California,CA,Los Angeles,90062,34.00374708,-118.3303151,9.5
California,CA,Los Angeles,90063,34.04537708,-118.2280497,9.5
California,CA,Los Angeles,90064,34.03523708,-118.4712547,9.5
California,CA,Los Angeles,90065,34.10848667,-118.2685451,9.5
California,CA,Los Angeles,90066,34.00019108,-118.4730607,9.5
California,CA,Los Angeles,90067,34.05656107,-118.4240973,9.5
California,CA,Los Angeles,90068,34.06372551,-118.4294506,9.5
California,CA,Los Angeles,90069,34.09328768,-118.4023232,9.5
California,CA,Los Angeles,90070,34.05988798,-118.3307645,9.5
California,CA,Los Angeles,90071,34.05241489,-118.2599099,9.5
California,CA,Los Angeles,90072,34.09652528,-118.329891,9.5
California,CA,Los Angeles,90073,34.05257479,-118.4574194,9.5
California,CA,Los Angeles,90074,34.04994183,-118.2804187,9.5
California,CA,Los Angeles,90075,34.05997278,-118.3306192,9.5
California,CA,Los Angeles,90076,34.05997868,-118.3305969,9.5
California,CA,Los Angeles,90077,34.10317302,-118.4936491,9.5
California,CA,Los Angeles,90078,34.09938848,-118.3516628,9.5
California,CA,Los Angeles,90079,34.04058497,-118.2579794,9.5
California,CA,Los Angeles,90080,33.94999778,-118.4005996,9.5
California,CA,Los Angeles,90081,34.05341258,-118.2721302,9.5
California,CA,Los Angeles,90082,33.99998748,-118.3004038,9.5
California,CA,Los Angeles,90083,33.94999778,-118.4205996,9.5
California,CA,Los Angeles,90084,34.04999778,-118.2805996,9.5
California,CA,Los Angeles,90086,34.05999773,-118.2605996,9.5
California,CA,Los Angeles,90087,34.05999773,-118.2605996,9.5
California,CA,Los Angeles,90088,34.04999778,-118.2805996,9.5
California,CA,Los Angeles,90089,34.03889202,-118.3271927,9.5
California,CA,Los Angeles,90090,34.07265328,-118.2647887,0
California,CA,Los Angeles,90091,33.98999568,-118.1705978,9.5
California,CA,Los Angeles,90093,34.09999778,-118.3505996,9.5
California,CA,Los Angeles,90094,33.97492964,-118.4602011,9.5
California,CA,Los Angeles,90095,34.07017407,-118.4544198,9.5
California,CA,Los Angeles,90096,33.96999778,-118.1905996,9.5
California,CA,Los Angeles,90099,34.05999773,-118.2605996,9.5
California,CA,Los Angeles,90102,34.02003919,-118.7413821,0
California,CA,Los Angeles,90103,34.02003919,-118.7413821,0
California,CA,Los Angeles,90134,34.02003919,-118.7413821,9.5
California,CA,Los Angeles,90140,34.02003919,-118.7413821,9.5
California,CA,Los Angeles,90189,34.05992798,-118.2703856,9.5
California,CA,Los Angeles,90230,33.99645603,-118.4361407,10.25
Tennessee,TN,Memphis,37501,35.00273797,-89.94018192,9.75
Tennessee,TN,Memphis,37544,35.14999776,-90.07059959,9.75
Tennessee,TN,Memphis,38101,35.13041842,-90.05820232,9.75
Tennessee,TN,Memphis,38103,35.15499203,-90.09957255,9.75
Tennessee,TN,Memphis,38104,35.11567203,-90.0475726,9.75
Tennessee,TN,Memphis,38105,35.15229076,-90.05760199,9.75
Tennessee,TN,Memphis,38106,35.10487998,-90.26086955,9.75
Tennessee,TN,Memphis,38107,35.17442998,-90.05858955,9.75
Tennessee,TN,Memphis,38108,35.17435955,-90.04673208,9.75
Tennessee,TN,Memphis,38109,35.05177291,-90.33562301,9.75
Tennessee,TN,Memphis,38110,35.12863021,-90.27281912,0
Tennessee,TN,Memphis,38111,35.11220802,-90.06127808,9.75
Tennessee,TN,Memphis,38112,35.14875603,-90.0230387,9.75
Tennessee,TN,Memphis,38113,35.10596966,-90.11987179,9.75
Tennessee,TN,Memphis,38114,35.09851603,-90.02613315,9.75
Tennessee,TN,Memphis,38115,35.05955964,-89.95027503,9.75
Tennessee,TN,Memphis,38116,35.0354386,-90.09134818,9.75
Tennessee,TN,Memphis,38117,35.11333393,-89.94703705,9.75
Tennessee,TN,Memphis,38118,35.05104264,-90.01030768,9.75
Tennessee,TN,Memphis,38119,35.07935158,-89.92377718,9.75
Tennessee,TN,Memphis,38120,35.12574162,-89.92517208,9.75
Tennessee,TN,Memphis,38122,35.16134605,-90.00332658,9.75
Tennessee,TN,Memphis,38124,35.10999776,-89.93059959,9.75
Tennessee,TN,Memphis,38125,35.0290317,-89.86440648,9.75
Tennessee,TN,Memphis,38126,35.12708381,-90.06286404,9.75
Tennessee,TN,Memphis,38127,35.22668176,-90.20498113,9.75
Tennessee,TN,Memphis,38128,35.22222908,-90.00107063,9.75
Tennessee,TN,Memphis,38130,35.03150596,-90.00277439,9.75
Tennessee,TN,Memphis,38131,35.06426649,-89.99758791,9.75
Tennessee,TN,Memphis,38132,35.07030898,-90.0450426,9.75
Tennessee,TN,Memphis,38133,35.20691949,-89.87591813,9.75
Tennessee,TN,Memphis,38134,35.18136097,-89.9062061,9.75
Tennessee,TN,Memphis,38135,35.23774258,-89.92673612,9.75
Tennessee,TN,Memphis,38136,35.09444344,-90.02588426,9.75
Tennessee,TN,Memphis,38137,35.11316584,-89.89717126,9.75
Tennessee,TN,Memphis,38138,35.08286803,-89.87401648,9.75
Tennessee,TN,Memphis,38141,35.01460204,-89.89540855,9.75
Tennessee,TN,Memphis,38142,35.12863021,-90.27281912,0
Tennessee,TN,Memphis,38145,35.14999776,-90.07059959,9.75
Tennessee,TN,Memphis,38147,35.12863021,-90.27281912,0
Tennessee,TN,Memphis,38148,35.14999776,-90.07059959,9.75
Tennessee,TN,Memphis,38150,35.14999776,-90.07059959,9.75
Tennessee,TN,Memphis,38151,35.14999776,-90.07059959,9.75
Tennessee,TN,Memphis,38152,35.11978511,-89.94408969,9.75
Tennessee,TN,Memphis,38157,35.11214371,-89.91453989,9.75
Tennessee,TN,Memphis,38159,35.14999776,-90.07059959,9.75
Tennessee,TN,Memphis,38161,35.13418126,-89.88615589,9.75
Tennessee,TN,Memphis,38163,35.14161387,-90.03697042,9.75
Tennessee,TN,Memphis,38165,35.12863021,-90.27281912,0
Tennessee,TN,Memphis,38166,35.13256001,-89.87245669,9.75
Tennessee,TN,Memphis,38167,35.20999776,-90.04059959,9.75
Tennessee,TN,Memphis,38168,35.22999766,-89.92059959,9.75
Tennessee,TN,Memphis,38173,35.14999776,-90.07059959,9.75
Tennessee,TN,Memphis,38174,35.14999776,-90.07059959,9.75
Tennessee,TN,Memphis,38175,35.04999776,-89.89059959,9.75
Tennessee,TN,Memphis,38177,35.14999776,-90.07059959,9.75
Tennessee,TN,Memphis,38181,35.04999776,-89.96059959,9.75
Tennessee,TN,Memphis,38182,35.14999776,-90.07059959,9.75
Tennessee,TN,Memphis,38184,35.14999776,-90.07059959,9.75
Tennessee,TN,Memphis,38186,35.02999776,-90.04059959,9.75
Tennessee,TN,Memphis,38187,35.07999771,-89.86059959,9.75
Tennessee,TN,Memphis,38188,35.09959361,-89.88316259,9.75
Tennessee,TN,Memphis,38190,35.04999776,-90.08059959,9.75
Tennessee,TN,Memphis,38193,35.04955841,-89.89028479,9.75
Tennessee,TN,Memphis,38194,35.06999776,-90.02059959,9.75
Tennessee,TN,Memphis,38197,35.10017436,-89.87048579,9.75
Tennessee,TN,Nashville,37201,36.16591181,-86.78637039,9.75
Tennessee,TN,Nashville,37202,36.18883379,-86.79375779,9.25
Tennessee,TN,Nashville,37203,36.14798414,-86.83191049,9.25
Tennessee,TN,Nashville,37204,36.1054259,-86.81795884,9.25
Tennessee,TN,Nashville,37205,36.11188834,-86.95274598,9.25
Tennessee,TN,Nashville,37206,36.18045722,-86.81285993,9.25
Tennessee,TN,Nashville,37207,36.2345063,-86.86592063,9.25
Tennessee,TN,Nashville,37208,36.17552064,-86.85025329,9.25
Tennessee,TN,Nashville,37209,36.15106204,-87.06508495,9.25
Tennessee,TN,Nashville,37210,36.13873128,-86.81511933,9.25
Tennessee,TN,Nashville,37211,36.07040895,-86.80216994,9.25
Tennessee,TN,Nashville,37212,36.13273384,-86.82405914,9.25
Tennessee,TN,Nashville,37213,36.16815089,-86.78616109,9.25
Tennessee,TN,Nashville,37214,36.17893462,-86.74362043,9.25
Tennessee,TN,Nashville,37215,36.08523815,-86.92157943,9.25
Tennessee,TN,Nashville,37216,36.21777969,-86.76446849,9.25
Tennessee,TN,Nashville,37217,36.10795144,-86.74059668,9.25
Tennessee,TN,Nashville,37218,36.19997028,-87.06306744,9.25
Tennessee,TN,Nashville,37219,36.16772571,-86.79303669,9.25
Tennessee,TN,Nashville,37220,36.0647954,-86.86030919,9.25
Tennessee,TN,Nashville,37221,36.05800486,-87.12865662,9.25
Tennessee,TN,Nashville,37222,36.06999774,-86.75059959,9.25
Tennessee,TN,Nashville,37224,36.16999774,-86.80059959,9.25
Tennessee,TN,Nashville,37227,36.16999774,-86.80059959,9.25
Tennessee,TN,Nashville,37228,36.19247339,-86.84652644,9.25
Tennessee,TN,Nashville,37229,36.14591604,-86.68638479,9.25
Tennessee,TN,Nashville,37230,36.14907774,-86.69568679,9.25
Tennessee,TN,Nashville,37232,36.14142909,-86.80858906,9.25
Tennessee,TN,Nashville,37234,36.15843339,-86.80276679,9.25
Tennessee,TN,Nashville,37235,36.14899124,-86.82471469,9.25
Tennessee,TN,Nashville,37236,36.15341574,-86.82151279,9.25
Tennessee,TN,Nashville,37237,36.18618851,-87.11479465,9.25
Tennessee,TN,Nashville,37238,36.16626579,-86.79987439,9.25
Tennessee,TN,Nashville,37240,36.14679874,-86.80803871,9.25
Tennessee,TN,Nashville,37241,36.10999774,-86.69059959,9.25
Tennessee,TN,Nashville,37242,36.16536939,-86.80279969,9.25
Tennessee,TN,Nashville,37243,36.16333187,-86.78422342,9.25
Tennessee,TN,Nashville,37244,36.16999774,-86.80059959,9.25
Tennessee,TN,Nashville,37245,36.18618851,-87.11479465,0
Tennessee,TN,Nashville,37246,36.15923192,-86.79343032,9.25
Tennessee,TN,Nashville,37247,36.18618851,-87.11479465,0
Tennessee,TN,Nashville,37248,36.18618851,-87.11479465,0
Tennessee,TN,Nashville,37249,36.18618851,-87.11479465,0
Tennessee,TN,Nashville,37250,36.16999774,-86.80059959,9.25
New York,NY,New York,10001,40.78582462,-74.01122503,8.8
New York,NY,New York,10002,40.71570762,-74.00543848,8.8
New York,NY,New York,10003,40.73130244,-73.99871864,8.8
New York,NY,New York,10004,40.69767788,-74.06915673,8.8
New York,NY,New York,10005,40.70583834,-74.01321735,8.8
New York,NY,New York,10006,40.70978034,-74.0183338,8.8
New York,NY,New York,10007,40.71344054,-74.01726579,8.8
New York,NY,New York,10008,40.70977572,-74.03042668,8.8
New York,NY,New York,10009,40.72684372,-73.99558453,8.8
New York,NY,New York,10010,40.73886367,-74.00363228,8.8
New York,NY,New York,10011,40.74487267,-74.02450963,8.8
New York,NY,New York,10012,40.72586654,-74.00848424,8.8
New York,NY,New York,10013,40.72007172,-74.02854648,8.8
New York,NY,New York,10014,40.73509817,-74.03092908,8.8
New York,NY,New York,10016,40.74459107,-73.99524463,8.8
New York,NY,New York,10017,40.75258104,-73.98334614,8.8
New York,NY,New York,10018,40.75697257,-74.01724363,8.8
New York,NY,New York,10019,40.74508598,-74.03047508,8.8
New York,NY,New York,10020,40.75950134,-73.98583725,8.8
New York,NY,New York,10021,40.77091417,-73.97928203,8.8
New York,NY,New York,10022,40.75828857,-73.98749008,8.8
New York,NY,New York,10023,40.77656004,-73.99200729,8.8
New York,NY,New York,10024,40.78578517,-73.99933093,8.8
New York,NY,New York,10025,40.79930562,-73.99129963,8.8
New York,NY,New York,10026,40.80245244,-73.96317169,8.8
New York,NY,New York,10027,40.81319767,-73.97824258,8.8
New York,NY,New York,10028,40.77629467,-73.97131763,8.8
New York,NY,New York,10029,40.79159607,-73.96732508,8.8
New York,NY,New York,10030,40.81841099,-73.95299869,8.8
New York,NY,New York,10031,40.82748617,-73.97340563,8.8
New York,NY,New York,10032,40.83435567,-73.96723908,8.8
New York,NY,New York,10033,40.84646212,-73.96016153,8.8
New York,NY,New York,10034,40.86890867,-73.94396803,8.8
New York,NY,New York,10035,40.79532667,-73.95239808,8.8
New York,NY,New York,10036,40.74617962,-74.01205063,8.8
New York,NY,New York,10037,40.81377404,-73.94804919,8.8
New York,NY,New York,10038,40.70657149,-74.01239819,8.8
New York,NY,New York,10039,40.82772604,-73.94869114,8.8
New York,NY,New York,10040,40.86006217,-73.95463653,8.8
New York,NY,New York,10041,40.70337582,-74.03027458,8.8
New York,NY,New York,10043,40.70428687,-74.00951542,8.8
New York,NY,New York,10044,40.75874712,-73.97204298,8.8
New York,NY,New York,10045,40.70895392,-74.01185147,8.8
New York,NY,New York,10046,40.6966727,-74.30914977,0
New York,NY,New York,10047,40.6966727,-74.30914977,0
New York,NY,New York,10055,40.75896242,-73.99479268,8.88
New York,NY,New York,10065,40.76588962,-73.98201303,8.88
New York,NY,New York,10069,40.77780699,-74.00391404,8.88
New York,NY,New York,10072,40.6966727,-74.30914977,0
New York,NY,New York,10075,40.77347679,-73.96639334,8.88
New York,NY,New York,10079,40.6966727,-74.30914977,0
New York,NY,New York,10080,40.71284742,-74.01813587,8.88
New York,NY,New York,10081,40.70999762,-74.03059958,8.88
New York,NY,New York,10082,40.6966727,-74.30914977,0
New York,NY,New York,10087,40.74999767,-74.01059958,8.88
New York,NY,New York,10094,40.6966727,-74.30914977,0
New York,NY,New York,10096,40.6966727,-74.30914977,0
New York,NY,New York,10101,40.76379932,-74.00644158,8.88
New York,NY,New York,10102,40.76378042,-74.00651118,8.88
New York,NY,New York,10103,40.75982992,-73.99693818,8.88
New York,NY,New York,10104,40.76015642,-73.98070542,8.88
New York,NY,New York,10105,40.76330947,-73.98236137,8.88
New York,NY,New York,10106,40.76556542,-73.98358697,8.88
New York,NY,New York,10107,40.76611342,-73.98517877,8.88
New York,NY,New York,10108,40.75452852,-74.00173758,8.88
New York,NY,New York,10109,40.75947327,-74.01046278,8.88
New York,NY,New York,10110,40.75347092,-74.00156308,8.88
New York,NY,New York,10111,40.75904362,-73.98034602,8.88
New York,NY,New York,10112,40.75916742,-73.98224292,8.88
New York,NY,New York,10113,40.74117492,-74.01935578,8.88
New York,NY,New York,10114,40.73999762,-74.02059958,8.88
New York,NY,New York,10115,40.81085192,-73.96631587,8.88
New York,NY,New York,10116,40.75033822,-74.01549138,8.88
New York,NY,New York,10117,40.75032242,-74.01547338,8.88
New York,NY,New York,10118,40.74850737,-74.00621778,8.88
New York,NY,New York,10119,40.75064542,-73.99530842,8.88
New York,NY,New York,10120,40.75006992,-73.99209837,8.88
New York,NY,New York,10121,40.74927977,-74.01239018,8.88
New York,NY,New York,10122,40.75135102,-74.01192598,8.88
New York,NY,New York,10123,40.75192292,-73.99437387,8.88
New York,NY,New York,10124,40.75452852,-74.00173758,8.88
New York,NY,New York,10125,40.79999762,-73.99059958,8.88
New York,NY,New York,10126,40.75999762,-73.99059958,8.88
New York,NY,New York,10128,40.78328352,-73.97547358,8.88
New York,NY,New York,10129,40.75451642,-74.00171738,8.88
New York,NY,New York,10130,40.78005322,-73.97027548,8.88
New York,NY,New York,10131,40.76809207,-73.98145108,8.88
New York,NY,New York,10132,40.77999767,-73.99059958,8.88
New York,NY,New York,10133,40.77459852,-74.00132158,8.88
New York,NY,New York,10138,40.74999767,-74.01059958,8.88
New York,NY,New York,10149,40.6966727,-74.30914977,0
New York,NY,New York,10150,40.75822042,-73.99108668,8.88
New York,NY,New York,10151,40.76312152,-73.99437078,8.88
New York,NY,New York,10152,40.75877562,-73.99333388,8.88
New York,NY,New York,10153,40.76384232,-73.99379588,8.88
New York,NY,New York,10154,40.75777847,-73.97506247,8.88
New York,NY,New York,10155,40.76092742,-73.97066152,8.88
New York,NY,New York,10156,40.75123162,-74.01584378,8.88
New York,NY,New York,10157,40.74999767,-74.01059958,8.88
New York,NY,New York,10158,40.74897912,-73.99622578,8.88
New York,NY,New York,10159,40.73942432,-74.00500678,8.88
New York,NY,New York,10160,40.73999922,-74.00060738,8.88
New York,NY,New York,10162,40.76931742,-73.97047848,8.88
New York,NY,New York,10163,40.75308027,-73.99539488,8.88
New York,NY,New York,10164,40.75313687,-73.99549528,8.88
New York,NY,New York,10165,40.75213052,-73.98129737,8.88
New York,NY,New York,10166,40.75409852,-73.99692618,8.88
New York,NY,New York,10167,40.75464852,-73.97734597,8.88
New York,NY,New York,10168,40.75144697,-73.97967837,8.88
New York,NY,New York,10169,40.75456082,-73.99657668,8.88
New York,NY,New York,10170,40.75274802,-73.97873747,8.88
New York,NY,New York,10171,40.75650822,-73.99498888,8.88
New York,NY,New York,10172,40.75552787,-73.99570338,8.88
New York,NY,New York,10173,40.75413192,-73.98193837,8.88
New York,NY,New York,10174,40.75175347,-73.97735037,8.88
New York,NY,New York,10175,40.75439792,-74.00073298,8.88
New York,NY,New York,10176,40.75537992,-73.98102487,8.88
New York,NY,New York,10177,40.75504722,-73.99621868,8.88
New York,NY,New York,10178,40.75083517,-73.99912898,8.88
New York,NY,New York,10179,40.75559777,-73.99775488,8.88
New York,NY,New York,10184,40.6966727,-74.30914977,0
New York,NY,New York,10185,40.75452852,-74.00173758,8.88
New York,NY,New York,10196,40.6966727,-74.30914977,0
New York,NY,New York,10197,40.6966727,-74.30914977,0
New York,NY,New York,10199,40.75113744,-74.01151729,8.88
New York,NY,New York,10203,40.70999762,-74.03059958,8.88
New York,NY,New York,10211,40.72981512,-74.01029298,8.88
New York,NY,New York,10212,40.70999762,-74.03059958,8.88
New York,NY,New York,10213,40.71984192,-74.03066348,8.88
New York,NY,New York,10242,40.70999762,-74.03059958,8.88
New York,NY,New York,10249,40.70999762,-74.03059958,8.88
New York,NY,New York,10256,40.70999762,-74.03059958,8.88
New York,NY,New York,10257,40.6966727,-74.30914977,0
New York,NY,New York,10258,40.70999762,-74.03059958,8.88
New York,NY,New York,10259,40.70999762,-74.03059958,8.88
New York,NY,New York,10260,40.70700302,-74.03121288,8.88
New York,NY,New York,10261,40.70999762,-74.03059958,8.88
New York,NY,New York,10265,40.70556242,-74.02870658,8.88
New York,NY,New York,10268,40.70597477,-74.02935328,8.88
New York,NY,New York,10269,40.70999762,-74.03059958,8.88
New York,NY,New York,10271,40.70849952,-74.03160138,8.88
New York,NY,New York,10272,40.70878112,-74.02292758,8.88
New York,NY,New York,10273,40.70999762,-74.03059958,8.88
New York,NY,New York,10274,40.70403262,-74.03362668,8.88
New York,NY,New York,10275,40.70999762,-74.03059958,8.88
New York,NY,New York,10276,40.73149782,-74.01075358,8.88
New York,NY,New York,10277,40.70999762,-74.03059958,8.88
New York,NY,New York,10278,40.71521547,-74.00679997,8.88
New York,NY,New York,10279,40.71221307,-74.02840478,8.88
New York,NY,New York,10280,40.70594667,-74.04811403,8.88
New York,NY,New York,10281,40.71109562,-74.03515088,8.88
New York,NY,New York,10282,40.71868954,-74.02772664,8.88
New York,NY,New York,10285,40.71351052,-74.03462428,8.88
New York,NY,New York,10286,40.70999762,-74.03059958,8.88
New York,NY,New York,10292,40.6966727,-74.30914977,0
Pennsylvania,PA,Philadelphia,19019,40.11971048,-75.03030988,8
Pennsylvania,PA,Philadelphia,19092,39.94999593,-75.20059828,8
Pennsylvania,PA,Philadelphia,19093,39.94999763,-75.20059958,8
Pennsylvania,PA,Philadelphia,19099,39.94999763,-75.18059958,8
Pennsylvania,PA,Philadelphia,19101,39.95226418,-75.18311768,8
Pennsylvania,PA,Philadelphia,19102,39.98879761,-75.20773859,8
Pennsylvania,PA,Philadelphia,19103,39.98825871,-75.21493754,8
Pennsylvania,PA,Philadelphia,19104,39.96013018,-75.21717153,8
Pennsylvania,PA,Philadelphia,19105,39.95192303,-75.18104908,8
Pennsylvania,PA,Philadelphia,19106,39.95426573,-75.16156053,8
Pennsylvania,PA,Philadelphia,19107,39.96929823,-75.27433184,8
Pennsylvania,PA,Philadelphia,19108,39.95986647,-75.16340342,8
Pennsylvania,PA,Philadelphia,19109,39.95041397,-75.16602737,8
Pennsylvania,PA,Philadelphia,19110,39.95058147,-75.16742982,8
Pennsylvania,PA,Philadelphia,19111,40.06449265,-75.12215214,8
Pennsylvania,PA,Philadelphia,19112,39.95749383,-75.24827579,8
Pennsylvania,PA,Philadelphia,19113,39.87002516,-75.30765759,8
Pennsylvania,PA,Philadelphia,19114,40.0668386,-75.04566459,8
Pennsylvania,PA,Philadelphia,19115,40.08930975,-75.08451809,8
Pennsylvania,PA,Philadelphia,19116,40.11635555,-75.05544059,8
Pennsylvania,PA,Philadelphia,19118,40.0713657,-75.25639359,8
Pennsylvania,PA,Philadelphia,19119,40.0523112,-75.23228259,8
Pennsylvania,PA,Philadelphia,19120,40.03262375,-75.15918449,8
Pennsylvania,PA,Philadelphia,19121,39.98351461,-75.22154539,8
Pennsylvania,PA,Philadelphia,19122,39.97788553,-75.16182558,8
Pennsylvania,PA,Philadelphia,19123,39.96270366,-75.18395854,8
Pennsylvania,PA,Philadelphia,19124,40.01711566,-75.13518614,8
Pennsylvania,PA,Philadelphia,19125,39.97561863,-75.14235098,8
Pennsylvania,PA,Philadelphia,19126,40.05665323,-75.15720753,8
Pennsylvania,PA,Philadelphia,19127,40.02818515,-75.26915554,8
Pennsylvania,PA,Philadelphia,19128,40.04925575,-75.26856514,8
Pennsylvania,PA,Philadelphia,19129,40.01429866,-75.22581254,8
Pennsylvania,PA,Philadelphia,19130,39.96782863,-75.19737163,8
Pennsylvania,PA,Philadelphia,19131,39.98831721,-75.26230404,8
Pennsylvania,PA,Philadelphia,19132,39.99649016,-75.21383754,8
Pennsylvania,PA,Philadelphia,19133,39.99263163,-75.16221458,8
Pennsylvania,PA,Philadelphia,19134,39.98910666,-75.14839849,8
Pennsylvania,PA,Philadelphia,19135,40.02128316,-75.09079364,8
Pennsylvania,PA,Philadelphia,19136,40.0409132,-75.05788294,8
Pennsylvania,PA,Philadelphia,19137,39.99449971,-75.11652359,8
Pennsylvania,PA,Philadelphia,19138,40.05561078,-75.18231848,8
Pennsylvania,PA,Philadelphia,19139,39.96065431,-75.27239049,8
Pennsylvania,PA,Philadelphia,19140,40.01614466,-75.18753294,8
Pennsylvania,PA,Philadelphia,19141,40.03759858,-75.16632848,8
Pennsylvania,PA,Philadelphia,19142,39.92357863,-75.25403403,8
Pennsylvania,PA,Philadelphia,19143,39.94034171,-75.26939959,8
Pennsylvania,PA,Philadelphia,19144,40.03282765,-75.21940059,8
Pennsylvania,PA,Philadelphia,19145,39.91176616,-75.23273199,8
Pennsylvania,PA,Philadelphia,19146,39.93989526,-75.22671059,8
Pennsylvania,PA,Philadelphia,19147,39.93750271,-75.18753409,8
Pennsylvania,PA,Philadelphia,19148,39.91181486,-75.19341449,8
Pennsylvania,PA,Philadelphia,19149,40.03927905,-75.10929054,8
Pennsylvania,PA,Philadelphia,19150,40.07188678,-75.19207063,8
Pennsylvania,PA,Philadelphia,19152,40.0591077,-75.08676654,8
Pennsylvania,PA,Philadelphia,19153,39.88836424,-75.31312735,8
Pennsylvania,PA,Philadelphia,19154,40.0938692,-75.02676454,8
Pennsylvania,PA,Philadelphia,19155,40.08999763,-75.00059958,8
Pennsylvania,PA,Philadelphia,19160,40.00987663,-75.17044708,8
Pennsylvania,PA,Philadelphia,19161,40.05999768,-75.10059958,8
Pennsylvania,PA,Philadelphia,19162,39.94999763,-75.18059958,8
Pennsylvania,PA,Philadelphia,19170,39.94999763,-75.18059958,8
Pennsylvania,PA,Philadelphia,19171,39.94999763,-75.18059958,8
Pennsylvania,PA,Philadelphia,19172,39.94999763,-75.18059958,8
Pennsylvania,PA,Philadelphia,19173,39.94999763,-75.18059958,8
Pennsylvania,PA,Philadelphia,19175,39.94999763,-75.18059958,8
Pennsylvania,PA,Philadelphia,19176,39.90263284,-75.24108785,8
Pennsylvania,PA,Philadelphia,19177,39.94999763,-75.20059958,8
Pennsylvania,PA,Philadelphia,19178,39.94999763,-75.20059958,8
Pennsylvania,PA,Philadelphia,19179,40.02999763,-75.20059958,8
Pennsylvania,PA,Philadelphia,19181,39.95041953,-75.16779418,8
Pennsylvania,PA,Philadelphia,19182,39.94999763,-75.18059958,8
Pennsylvania,PA,Philadelphia,19183,39.94999763,-75.18059958,8
Pennsylvania,PA,Philadelphia,19184,39.94999763,-75.18059958,8
Pennsylvania,PA,Philadelphia,19185,39.88999763,-75.19059958,8
Pennsylvania,PA,Philadelphia,19187,39.94999763,-75.18059958,8
Pennsylvania,PA,Philadelphia,19188,39.94999763,-75.18059958,8
Pennsylvania,PA,Philadelphia,19190,39.94999763,-75.18059958,8
Pennsylvania,PA,Philadelphia,19191,39.94999763,-75.18059958,8
Pennsylvania,PA,Philadelphia,19192,39.95164747,-75.17049237,8
Pennsylvania,PA,Philadelphia,19193,39.94999763,-75.18059958,8
Pennsylvania,PA,Philadelphia,19194,39.94999763,-75.20059958,8
Pennsylvania,PA,Philadelphia,19195,39.94999763,-75.18059958,8
Pennsylvania,PA,Philadelphia,19196,39.94999763,-75.18059958,8
Pennsylvania,PA,Philadelphia,19197,39.94923773,-75.17162588,8
Pennsylvania,PA,Philadelphia,19244,40.10345623,-75.02346758,8
Pennsylvania,PA,Philadelphia,19255,40.10044152,-75.01100492,8
Arizona,AZ,Phoenix,85001,33.449965,-112.0908221,8.6
Arizona,AZ,Phoenix,85002,33.4499978,-112.0905996,8.6
Arizona,AZ,Phoenix,85003,33.44927819,-112.1190337,8.6
Arizona,AZ,Phoenix,85004,33.45076869,-112.1127656,8.6
Arizona,AZ,Phoenix,85005,33.4476565,-112.1551673,8.6
Arizona,AZ,Phoenix,85006,33.46429674,-112.0909606,8.6
Arizona,AZ,Phoenix,85007,33.44572664,-112.1281117,8.6
Arizona,AZ,Phoenix,85008,33.46254124,-112.0679825,8.6
Arizona,AZ,Phoenix,85009,33.44361209,-112.1729446,8.6
Arizona,AZ,Phoenix,85010,33.4658109,-112.0450863,8.6
Arizona,AZ,Phoenix,85011,33.5055287,-112.0849979,8.6
Arizona,AZ,Phoenix,85012,33.50838023,-112.1127787,8.6
Arizona,AZ,Phoenix,85013,33.50891263,-112.1237362,8.6
Arizona,AZ,Phoenix,85014,33.50860218,-112.0996537,8.6
Arizona,AZ,Phoenix,85015,33.50908713,-112.1422736,8.6
Arizona,AZ,Phoenix,85016,33.51546463,-112.0726827,8.6
Arizona,AZ,Phoenix,85017,33.5686002,-112.1609737,8.6
Arizona,AZ,Phoenix,85018,33.51593967,-112.0645852,8.6
Arizona,AZ,Phoenix,85019,33.50947573,-112.1841281,8.6
Arizona,AZ,Phoenix,85020,33.57073163,-112.0954167,8.6
Arizona,AZ,Phoenix,85021,33.55909103,-112.1419471,8.6
Arizona,AZ,Phoenix,85022,33.62531862,-112.0945752,8.6
Arizona,AZ,Phoenix,85023,33.63105957,-112.1354951,8.6
Arizona,AZ,Phoenix,85024,33.69291261,-112.0855427,8.6
Arizona,AZ,Phoenix,85026,33.44866812,-111.9839007,8.6
Arizona,AZ,Phoenix,85027,33.72719264,-112.1804882,8.6
Arizona,AZ,Phoenix,85028,33.57086718,-112.0454247,8.6
Arizona,AZ,Phoenix,85029,33.59115469,-112.1901481,8.6
Arizona,AZ,Phoenix,85030,33.4499978,-112.1005996,8.6
Arizona,AZ,Phoenix,85031,33.4968148,-112.1887321,8.6
Arizona,AZ,Phoenix,85032,33.62442272,-112.0445757,8.6
Arizona,AZ,Phoenix,85033,33.49195163,-112.2506547,8.6
Arizona,AZ,Phoenix,85034,33.43142226,-112.0975912,8.6
Arizona,AZ,Phoenix,85035,33.47103929,-112.2774042,8.6
Arizona,AZ,Phoenix,85036,33.4809824,-112.0171202,8.6
Arizona,AZ,Phoenix,85037,33.48645668,-112.3586962,8.6
Arizona,AZ,Phoenix,85038,33.4499978,-111.9905996,8.6
Arizona,AZ,Phoenix,85039,33.4999978,-112.3105996,8.6
Arizona,AZ,Phoenix,85040,33.40604372,-112.1126464,8.6
Arizona,AZ,Phoenix,85041,33.38235983,-112.2026627,8.6
Arizona,AZ,Phoenix,85042,33.36190653,-112.2337099,8.6
Arizona,AZ,Phoenix,85043,33.42726776,-112.2811337,8.6
Arizona,AZ,Phoenix,85044,33.34164525,-112.0345076,8.6
Arizona,AZ,Phoenix,85045,33.29612921,-112.1954497,8.6
Arizona,AZ,Phoenix,85046,33.62627289,-112.040419,8.6
Arizona,AZ,Phoenix,85048,33.43154706,-112.2000264,8.6
Arizona,AZ,Phoenix,85050,33.68841005,-112.2152229,8.6
Arizona,AZ,Phoenix,85051,33.57346763,-112.1794292,8.6
Arizona,AZ,Phoenix,85053,33.62995879,-112.1538096,8.6
Arizona,AZ,Phoenix,85054,33.68981356,-111.9930346,8.6
Arizona,AZ,Phoenix,85060,33.4804824,-112.0177922,8.6
Arizona,AZ,Phoenix,85061,33.5094,-112.1383016,8.6
Arizona,AZ,Phoenix,85062,33.4499978,-111.9905996,8.6
Arizona,AZ,Phoenix,85063,33.4999978,-112.1905996,8.6
Arizona,AZ,Phoenix,85064,33.5098039,-112.0594002,8.6
Arizona,AZ,Phoenix,85066,33.3899978,-112.0905996,8.6
Arizona,AZ,Phoenix,85067,33.4927738,-112.1043467,8.6
Arizona,AZ,Phoenix,85068,33.57502979,-112.0857586,8.6
Arizona,AZ,Phoenix,85069,33.55570059,-112.1326996,8.6
Arizona,AZ,Phoenix,85070,33.2933091,-112.084126,8.6
Arizona,AZ,Phoenix,85071,33.59668229,-112.1202677,8.6
Arizona,AZ,Phoenix,85072,33.4499978,-111.9905996,8.6
Arizona,AZ,Phoenix,85074,33.436747,-112.0717241,8.6
Arizona,AZ,Phoenix,85075,33.4499978,-112.0905996,8.6
Arizona,AZ,Phoenix,85076,33.3471581,-111.9959795,8.6
Arizona,AZ,Phoenix,85077,33.60388841,-112.4544428,0
Arizona,AZ,Phoenix,85078,33.62627289,-112.040419,8.6
Arizona,AZ,Phoenix,85079,33.5093556,-112.1382668,8.6
Arizona,AZ,Phoenix,85080,33.64999779,-112.1205996,8.6
Arizona,AZ,Phoenix,85082,33.4499978,-111.9905996,8.6
Arizona,AZ,Phoenix,85083,33.75516053,-112.2431167,8.6
Arizona,AZ,Phoenix,85085,33.75589754,-112.2600323,8.6
Arizona,AZ,Phoenix,85086,33.82192884,-112.2889803,8.6
Arizona,AZ,Phoenix,85087,33.93677571,-112.2731548,6.3
Arizona,AZ,Phoenix,85096,33.60388841,-112.4544428,0
Arizona,AZ,Phoenix,85097,33.60388841,-112.4544428,0
Arizona,AZ,Phoenix,85098,33.60388841,-112.4544428,0
Arizona,AZ,Phoenix,85099,33.60388841,-112.4544428,0
Texas,TX,San Antonio,78201,29.47372775,-98.57594431,8.25
Texas,TX,San Antonio,78202,29.42824376,-98.50337036,8.25
Texas,TX,San Antonio,78203,29.41443956,-98.50313186,8.25
Texas,TX,San Antonio,78204,29.40598516,-98.54949631,8.25
Texas,TX,San Antonio,78205,29.42442402,-98.50362331,8.25
Texas,TX,San Antonio,78206,29.41707795,-98.48375886,8.25
Texas,TX,San Antonio,78207,29.42181691,-98.56313981,8.25
Texas,TX,San Antonio,78208,29.44002061,-98.47927381,8.25
Texas,TX,San Antonio,78209,29.485974,-98.49818741,8.25
Texas,TX,San Antonio,78210,29.39625817,-98.50218246,8.25
Texas,TX,San Antonio,78211,29.34903199,-98.64863708,8.25
Texas,TX,San Antonio,78212,29.46237396,-98.53048006,8.25
Texas,TX,San Antonio,78213,29.51913825,-98.56865346,8.25
Texas,TX,San Antonio,78214,29.3268437,-98.55682508,8.25
Texas,TX,San Antonio,78215,29.44172591,-98.50244061,8.25
Texas,TX,San Antonio,78216,29.53525374,-98.56583687,8.25
Texas,TX,San Antonio,78217,29.54858843,-98.50737842,8.25
Texas,TX,San Antonio,78218,29.49038921,-98.47735957,8.25
Texas,TX,San Antonio,78219,29.47548936,-98.76997324,8.25
Texas,TX,San Antonio,78220,29.41817675,-98.47246058,8.25
Texas,TX,San Antonio,78221,29.29196367,-98.55216448,8.25
Texas,TX,San Antonio,78222,29.35984623,-98.45954058,8.25
Texas,TX,San Antonio,78223,29.31605675,-98.52384353,8.25
Texas,TX,San Antonio,78224,29.31318615,-98.61560658,8.25
Texas,TX,San Antonio,78225,29.38835127,-98.57232696,8.25
Texas,TX,San Antonio,78226,29.38075447,-98.60243881,8.25
Texas,TX,San Antonio,78227,29.40260311,-98.70741998,8.25
Texas,TX,San Antonio,78228,29.46197771,-98.61310866,8.25
Texas,TX,San Antonio,78229,29.50714725,-98.61382056,8.25
Texas,TX,San Antonio,78230,29.54227955,-98.60170351,8.25
Texas,TX,San Antonio,78231,29.56570659,-98.58367486,8.25
Texas,TX,San Antonio,78232,29.58406086,-98.56325057,8.25
Texas,TX,San Antonio,78233,29.55516978,-98.44730722,8.25
Texas,TX,San Antonio,78235,29.34232557,-98.46082826,8.25
Texas,TX,San Antonio,78236,29.38559967,-98.65018751,6.75
Texas,TX,San Antonio,78237,29.41996436,-98.61309541,8.25
Texas,TX,San Antonio,78238,29.47406815,-98.65406951,8.25
Texas,TX,San Antonio,78239,29.516318,-98.40161481,8.25
Texas,TX,San Antonio,78240,29.51765805,-98.68929647,8.25
Texas,TX,San Antonio,78242,29.35047757,-98.65070366,8.25
Texas,TX,San Antonio,78243,29.37742247,-98.61045856,8.25
Texas,TX,San Antonio,78244,29.4782413,-98.39158141,8.25
Texas,TX,San Antonio,78245,29.4112492,-98.88809012,8.25
Texas,TX,San Antonio,78246,29.53303516,-98.50136421,8.25
Texas,TX,San Antonio,78247,29.59057681,-98.49043322,8.25
Texas,TX,San Antonio,78248,29.58615969,-98.56859661,8.25
Texas,TX,San Antonio,78249,29.57522481,-98.69647532,8.25
Texas,TX,San Antonio,78250,29.5159165,-98.70871496,8.25
Texas,TX,San Antonio,78251,29.46346617,-98.76193777,8.25
Texas,TX,San Antonio,78252,29.33769166,-98.87545253,8.25
Texas,TX,San Antonio,78253,29.47247792,-98.95975011,8.25
Texas,TX,San Antonio,78254,29.55028915,-98.90162954,8.25
Texas,TX,San Antonio,78255,29.63197358,-98.75433832,8.25
Texas,TX,San Antonio,78256,29.62140009,-98.67136326,8.25
Texas,TX,San Antonio,78257,29.66070702,-98.67373057,8.25
Texas,TX,San Antonio,78258,29.64844773,-98.58937112,8.25
Texas,TX,San Antonio,78259,29.63879073,-98.50510527,8.25
Texas,TX,San Antonio,78260,29.68865105,-98.59181757,8.25
Texas,TX,San Antonio,78261,29.6944103,-98.47907237,8.25
Texas,TX,San Antonio,78263,29.36137508,-98.38656478,8.25
Texas,TX,San Antonio,78264,29.18921183,-98.6596112,8.25
Texas,TX,San Antonio,78265,29.53999796,-98.44059961,8.25
Texas,TX,San Antonio,78266,29.65563907,-98.40714842,7
Texas,TX,San Antonio,78268,29.49710991,-98.64592351,8.25
Texas,TX,San Antonio,78269,29.55967401,-98.61035531,8.25
Texas,TX,San Antonio,78270,29.57999796,-98.47059961,8.25
Texas,TX,San Antonio,78275,29.45777647,-98.84773191,0
Texas,TX,San Antonio,78278,29.56137686,-98.58185301,8.25
Texas,TX,San Antonio,78279,29.53524946,-98.51190091,8.25
Texas,TX,San Antonio,78280,29.53524946,-98.51190091,8.25
Texas,TX,San Antonio,78283,29.41345652,-98.52369251,8.25
Texas,TX,San Antonio,78284,29.5328767,-98.41336916,8.25
Texas,TX,San Antonio,78285,29.41999797,-98.51059961,8.25
Texas,TX,San Antonio,78286,29.45777647,-98.84773191,0
Texas,TX,San Antonio,78287,29.45777647,-98.84773191,8.25
Texas,TX,San Antonio,78288,29.53532705,-98.58372759,8.25
Texas,TX,San Antonio,78289,29.41999797,-98.51059961,8.25
Texas,TX,San Antonio,78291,29.42999797,-98.51059961,8.25
Texas,TX,San Antonio,78292,29.42999797,-98.51059961,8.25
Texas,TX,San Antonio,78293,29.42999797,-98.51059961,8.25
Texas,TX,San Antonio,78294,29.42999797,-98.51059961,8.25
Texas,TX,San Antonio,78295,29.42999797,-98.51059961,8.25
Texas,TX,San Antonio,78296,29.42999797,-98.51059961,8.25
Texas,TX,San Antonio,78297,29.42999797,-98.51059961,8.25
Texas,TX,San Antonio,78298,29.42999797,-98.51059961,8.25
Texas,TX,San Antonio,78299,29.42999797,-98.51059961,8.25
California,CA,San Diego,92101,32.71843271,-117.2223267,7.75
California,CA,San Diego,92102,32.72074631,-117.1578211,7.75
California,CA,San Diego,92103,32.74547526,-117.2119847,7.75
California,CA,San Diego,92104,32.73770947,-117.1494396,7.75
California,CA,San Diego,92105,32.73679276,-117.1318767,7.75
California,CA,San Diego,92106,32.70762132,-117.2740022,7.75
California,CA,San Diego,92107,32.73641521,-117.2828292,7.75
California,CA,San Diego,92108,32.66783924,-117.286568,7.75
California,CA,San Diego,92109,32.79589071,-117.2766267,7.75
California,CA,San Diego,92110,32.76863491,-117.2412087,7.75
California,CA,San Diego,92111,32.82365201,-117.2395028,7.75
California,CA,San Diego,92112,32.71985292,-117.1806018,7.75
California,CA,San Diego,92113,32.69531327,-117.1623512,7.75
California,CA,San Diego,92114,32.71064421,-117.0953238,7.75
California,CA,San Diego,92115,32.75562571,-117.1112981,7.75
California,CA,San Diego,92116,32.76655016,-117.1712516,7.75
California,CA,San Diego,92117,32.8188567,-117.2396702,7.75
California,CA,San Diego,92119,32.8148462,-117.0775462,7.75
California,CA,San Diego,92120,32.79746957,-117.1607938,7.75
California,CA,San Diego,92121,32.90331038,-117.2811643,7.75
California,CA,San Diego,92122,32.85689175,-117.2412047,7.75
California,CA,San Diego,92123,32.8217962,-117.1747957,7.75
California,CA,San Diego,92124,32.8214722,-117.1253957,7.75
California,CA,San Diego,92126,32.90972574,-117.1855928,7.75
California,CA,San Diego,92127,33.02212098,-117.2128057,7.75
California,CA,San Diego,92128,32.99532844,-117.1560762,7.75
California,CA,San Diego,92129,32.96570435,-117.2096793,7.75
California,CA,San Diego,92130,32.99588974,-117.297538,7.75
California,CA,San Diego,92131,32.89460793,-117.1321202,7.75
California,CA,San Diego,92132,32.71489739,-117.1785153,7.75
California,CA,San Diego,92134,32.72520934,-117.1518089,7.75
California,CA,San Diego,92135,32.70098782,-117.2292396,7.75
California,CA,San Diego,92136,32.68306477,-117.1378851,7.75
California,CA,San Diego,92137,32.74999782,-117.2205996,7.75
California,CA,San Diego,92138,32.74999782,-117.2205996,7.75
California,CA,San Diego,92139,32.68014227,-117.0882871,7.75
California,CA,San Diego,92140,32.74016942,-117.2176305,7.75
California,CA,San Diego,92142,32.83999781,-117.1205996,7.75
California,CA,San Diego,92145,32.87231925,-117.1785202,7.75
California,CA,San Diego,92147,32.72455144,-117.2241028,7.75
California,CA,San Diego,92149,32.67585222,-117.0855766,7.75
California,CA,San Diego,92150,32.97999771,-117.1005996,7.75
California,CA,San Diego,92152,32.70824272,-117.269838,7.75
California,CA,San Diego,92153,32.57465762,-117.0903954,7.75
California,CA,San Diego,92154,32.61477739,-117.1625726,7.75
California,CA,San Diego,92155,32.67453803,-117.1725609,7.75
California,CA,San Diego,92158,32.57378192,-116.9397771,7.75
California,CA,San Diego,92159,32.79999781,-117.0305996,7.75
California,CA,San Diego,92160,32.78258501,-117.1125655,7.75
California,CA,San Diego,92161,32.87769108,-117.2463302,7.75
California,CA,San Diego,92163,32.74943722,-117.1715615,7.75
California,CA,San Diego,92165,32.74958767,-117.1252194,7.75
California,CA,San Diego,92166,32.72101142,-117.2517764,7.75
California,CA,San Diego,92167,32.74590062,-117.2680628,7.75
California,CA,San Diego,92168,32.78300911,-117.1913947,7.75
California,CA,San Diego,92169,32.79875171,-117.2729012,7.75
California,CA,San Diego,92170,32.69691902,-117.1549314,7.75
California,CA,San Diego,92171,32.77999781,-117.1905996,7.75
California,CA,San Diego,92172,32.95719331,-117.148043,7.75
California,CA,San Diego,92173,32.56549668,-117.0850572,7.75
California,CA,San Diego,92174,32.70999782,-117.1005996,7.75
California,CA,San Diego,92175,32.76499611,-117.0812245,7.75
California,CA,San Diego,92176,32.76341471,-117.1436933,7.75
California,CA,San Diego,92177,32.82417431,-117.2521542,7.75
California,CA,San Diego,92179,32.57678168,-116.9746632,7.75
California,CA,San Diego,92182,32.77462848,-117.0818333,7.75
California,CA,San Diego,92184,32.82405592,-117.4374104,0
California,CA,San Diego,92186,32.74999782,-117.2205996,7.5
California,CA,San Diego,92187,32.71779247,-117.1659534,7.5
California,CA,San Diego,92191,32.90345181,-117.2401674,7.5
California,CA,San Diego,92192,32.85115041,-117.2358815,7.5
California,CA,San Diego,92193,32.80158801,-117.1606467,7.5
California,CA,San Diego,92195,32.76499611,-117.0812245,7.5
California,CA,San Diego,92196,32.91999786,-117.1505996,7.5
California,CA,San Diego,92197,32.98170161,-117.1036337,7.5
California,CA,San Diego,92198,33.02196966,-117.0950918,7.5
California,CA,San Diego,92199,32.98162641,-117.1036263,7.5
California,CA,San Francisco,94102,37.77933166,-122.4372486,8.63
California,CA,San Francisco,94103,37.77580366,-122.4338363,8.63
California,CA,San Francisco,94104,37.79098174,-122.4070309,8.63
California,CA,San Francisco,94105,37.79131376,-122.4132046,8.63
California,CA,San Francisco,94106,37.75758525,-122.6024091,0
California,CA,San Francisco,94107,37.76799521,-122.4127311,8.63
California,CA,San Francisco,94108,37.790977,-122.4194456,8.63
California,CA,San Francisco,94109,37.79700111,-122.4427531,8.63
California,CA,San Francisco,94110,37.74869376,-122.4356615,8.63
California,CA,San Francisco,94111,37.77212828,-122.4278737,8.63
California,CA,San Francisco,94112,37.72154128,-122.4834941,8.63
California,CA,San Francisco,94114,37.75856576,-122.4599456,8.63
California,CA,San Francisco,94115,37.78614266,-122.4586976,8.63
California,CA,San Francisco,94116,37.74418583,-122.5254327,8.63
California,CA,San Francisco,94117,37.77947878,-122.4901891,8.63
California,CA,San Francisco,94118,37.77884771,-122.4822011,8.63
California,CA,San Francisco,94119,37.79221376,-122.4126017,8.63
California,CA,San Francisco,94120,37.78983036,-122.420764,8.63
California,CA,San Francisco,94121,37.77720523,-122.5359931,8.63
California,CA,San Francisco,94122,37.75957778,-122.5262036,8.63
California,CA,San Francisco,94123,37.80071361,-122.4596411,8.63
California,CA,San Francisco,94124,37.73092273,-122.4237076,8.63
California,CA,San Francisco,94125,37.77999766,-122.4405996,8.63
California,CA,San Francisco,94126,37.79866171,-122.4178207,8.63
California,CA,San Francisco,94127,37.73643416,-122.4780996,8.63
California,CA,San Francisco,94128,37.62644529,-122.4207115,9.38
California,CA,San Francisco,94129,37.77891138,-122.5078672,8.63
California,CA,San Francisco,94130,37.81982561,-122.3895806,8.63
California,CA,San Francisco,94131,37.74606628,-122.4852022,8.63
California,CA,San Francisco,94132,37.72182378,-122.5265957,8.63
California,CA,San Francisco,94133,37.82847882,-122.4502696,8.63
California,CA,San Francisco,94134,37.72205078,-122.4516747,8.63
California,CA,San Francisco,94135,37.75758525,-122.6024091,0
California,CA,San Francisco,94136,37.75758525,-122.6024091,0
California,CA,San Francisco,94137,37.78999766,-122.4205996,8.63
California,CA,San Francisco,94138,37.75758525,-122.6024091,0
California,CA,San Francisco,94139,37.77999766,-122.4405996,8.63
California,CA,San Francisco,94140,37.75988906,-122.44086,8.63
California,CA,San Francisco,94141,37.76999771,-122.4305996,8.63
California,CA,San Francisco,94142,37.78172741,-122.4365403,8.63
California,CA,San Francisco,94143,37.76424897,-122.4597689,8.63
California,CA,San Francisco,94144,37.77999766,-122.4405996,8.63
California,CA,San Francisco,94145,37.78999766,-122.4205996,8.63
California,CA,San Francisco,94146,37.77999766,-122.4405996,8.63
California,CA,San Francisco,94147,37.77999766,-122.4405996,8.63
California,CA,San Francisco,94150,37.75758525,-122.6024091,0
California,CA,San Francisco,94151,37.77999766,-122.4405996,8.63
California,CA,San Francisco,94152,37.75758525,-122.6024091,0
California,CA,San Francisco,94153,37.75758525,-122.6024091,0
California,CA,San Francisco,94154,37.75758525,-122.6024091,0
California,CA,San Francisco,94155,37.75758525,-122.6024091,0
California,CA,San Francisco,94156,37.75758525,-122.6024091,0
California,CA,San Francisco,94158,37.77380471,-122.4112685,8.63
California,CA,San Francisco,94159,37.77940321,-122.4700734,8.63
California,CA,San Francisco,94160,37.77999766,-122.4405996,8.63
California,CA,San Francisco,94161,37.77999766,-122.4405996,8.63
California,CA,San Francisco,94162,37.75758525,-122.6024091,0
California,CA,San Francisco,94163,37.77999766,-122.4405996,8.63
California,CA,San Francisco,94164,37.78981446,-122.4422622,8.63
California,CA,San Francisco,94171,37.75758525,-122.6024091,0
California,CA,San Francisco,94172,37.77999766,-122.4405996,8.63
California,CA,San Francisco,94175,37.75758525,-122.6024091,0
California,CA,San Francisco,94177,37.77999766,-122.4405996,8.63
California,CA,San Francisco,94188,37.73999771,-122.4005996,8.63
California,CA,San Francisco,94199,37.75758525,-122.6024091,0
California,CA,San Jose,95101,37.39071934,-121.8913204,9.38
California,CA,San Jose,95103,37.33999766,-121.9105996,9.38
California,CA,San Jose,95106,37.33999766,-121.9105996,9.38
California,CA,San Jose,95108,37.33999766,-121.9105996,9.38
California,CA,San Jose,95109,37.33999766,-121.9105996,9.38
California,CA,San Jose,95110,37.34119581,-121.9449072,9.38
California,CA,San Jose,95111,37.28433599,-121.9103656,9.38
California,CA,San Jose,95112,37.34344076,-121.9234135,9.38
California,CA,San Jose,95113,37.33319805,-121.9029692,9.38
California,CA,San Jose,95115,37.33999766,-121.9105996,9.38
California,CA,San Jose,95116,37.34901976,-121.8921517,9.38
California,CA,San Jose,95117,37.31211321,-121.9864255,9.38
California,CA,San Jose,95118,37.25232421,-121.9311476,9.38
California,CA,San Jose,95119,37.22627086,-121.8257251,9.38
California,CA,San Jose,95120,37.17567707,-121.9202065,9.38
California,CA,San Jose,95121,37.30301331,-121.8490037,9.38
California,CA,San Jose,95122,37.33049386,-121.8791887,9.38
California,CA,San Jose,95123,37.2368195,-121.910161,9.38
California,CA,San Jose,95124,37.25691486,-121.9653086,9.38
California,CA,San Jose,95125,37.29776231,-121.9351446,9.38
California,CA,San Jose,95126,37.32414726,-121.9554961,9.38
California,CA,San Jose,95127,37.37134761,-121.9295502,9.38
California,CA,San Jose,95128,37.31624341,-121.9740446,9.38
California,CA,San Jose,95129,37.30518421,-122.0429981,9.38
California,CA,San Jose,95130,37.28544217,-121.9983016,9.38
California,CA,San Jose,95131,37.38814511,-121.9856371,9.38
California,CA,San Jose,95132,37.42845805,-121.9435787,9.38
California,CA,San Jose,95133,37.37162435,-121.9053111,9.38
California,CA,San Jose,95134,37.4275278,-121.9875646,9.38
California,CA,San Jose,95135,37.27217962,-121.8651281,9.38
California,CA,San Jose,95136,37.27387691,-121.8849771,9.38
California,CA,San Jose,95138,37.23259081,-121.8878067,9.38
California,CA,San Jose,95139,37.22488772,-121.7834606,9.38
California,CA,San Jose,95140,37.38981014,-121.8181912,9.13
California,CA,San Jose,95141,37.18531452,-121.856503,9.38
California,CA,San Jose,95148,37.32933388,-121.846183,9.38
California,CA,San Jose,95150,37.38999766,-121.9205996,9.38
California,CA,San Jose,95151,37.32228366,-121.8464616,9.38
California,CA,San Jose,95152,37.39999766,-121.8705996,9.38
California,CA,San Jose,95153,37.24999772,-121.8705996,9.38
California,CA,San Jose,95154,37.25999772,-121.9305996,9.38
California,CA,San Jose,95155,37.30999771,-121.9205996,9.38
California,CA,San Jose,95156,37.35999771,-121.8605996,9.38
California,CA,San Jose,95157,37.29992781,-122.0005108,9.38
California,CA,San Jose,95158,37.25999772,-121.9005996,9.38
California,CA,San Jose,95159,37.31999771,-121.9505996,9.38
California,CA,San Jose,95160,37.21999772,-121.8805996,9.38
California,CA,San Jose,95161,37.38999766,-121.9105996,9.38
California,CA,San Jose,95164,37.38999766,-121.9405996,9.38
California,CA,San Jose,95170,37.30994151,-122.0304892,9.38
California,CA,San Jose,95172,37.32999766,-121.9005996,9.38
California,CA,San Jose,95173,37.33999766,-121.9105996,9.38
California,CA,San Jose,95190,37.37461405,-121.9114852,9.38
California,CA,San Jose,95191,37.33392797,-121.925216,9.38
California,CA,San Jose,95192,37.33999766,-121.9005996,9.38
California,CA,San Jose,95193,37.23999767,-121.8505996,9.38
California,CA,San Jose,95194,37.38999766,-121.9105996,9.38
California,CA,San Jose,95196,37.33149492,-121.9004134,9.38
Washington,WA,Seattle,98101,47.61084956,-122.3572232,10.35
Washington,WA,Seattle,98102,47.63570556,-122.345222,10.35
Washington,WA,Seattle,98103,47.67048553,-122.3840915,10.35
Washington,WA,Seattle,98104,47.60146816,-122.351804,10.35
Washington,WA,Seattle,98105,47.66522745,-122.4856753,10.35
Washington,WA,Seattle,98106,47.54838462,-122.3952704,10.35
Washington,WA,Seattle,98107,47.66341813,-122.4255604,10.35
Washington,WA,Seattle,98108,47.54161807,-122.3540555,10.35
Washington,WA,Seattle,98109,47.63415961,-122.3619767,10.35
Washington,WA,Seattle,98111,47.60990571,-122.3605522,10.35
Washington,WA,Seattle,98112,47.63291212,-122.3297895,10.35
Washington,WA,Seattle,98113,47.60999761,-122.3505996,10.35
Washington,WA,Seattle,98114,47.60001091,-122.3506095,10.35
Washington,WA,Seattle,98115,47.6860605,-122.3719644,10.35
Washington,WA,Seattle,98116,47.57666852,-122.4428855,10.35
Washington,WA,Seattle,98117,47.68937263,-122.4296666,10.35
Washington,WA,Seattle,98118,47.54285612,-122.3070369,10.35
Washington,WA,Seattle,98119,47.63896216,-122.3932237,10.35
Washington,WA,Seattle,98121,47.61380711,-122.3725396,10.35
Washington,WA,Seattle,98122,47.60813712,-122.337485,10.35
Washington,WA,Seattle,98124,47.60999761,-122.3505996,10.35
Washington,WA,Seattle,98125,47.71703701,-122.3751809,10.35
Washington,WA,Seattle,98126,47.55643499,-122.4623639,10.35
Washington,WA,Seattle,98127,47.60999761,-122.3505996,10.35
Washington,WA,Seattle,98129,47.64148166,-122.3788767,10.35
Washington,WA,Seattle,98131,47.64147726,-122.3802182,10.35
Washington,WA,Seattle,98133,47.73871613,-122.39096,10.35
Washington,WA,Seattle,98134,47.57070052,-122.3820195,10.35
Washington,WA,Seattle,98136,47.53636407,-122.4362451,10.35
Washington,WA,Seattle,98138,47.45999761,-122.2705996,10.35
Washington,WA,Seattle,98139,47.60999761,-122.3505996,10.35
Washington,WA,Seattle,98141,47.60999761,-122.3505996,10.35
Washington,WA,Seattle,98144,47.58482207,-122.332582,10.35
Washington,WA,Seattle,98145,47.65999751,-122.3305996,10.35
Washington,WA,Seattle,98146,47.49803857,-122.407928,10.35
Washington,WA,Seattle,98148,47.44655857,-122.3652365,10.35
Washington,WA,Seattle,98151,47.60859698,-122.5046048,0
Washington,WA,Seattle,98154,47.60621037,-122.3363674,10.35
Washington,WA,Seattle,98155,47.75641058,-122.337282,10.35
Washington,WA,Seattle,98158,47.45049771,-122.3298116,10.35
Washington,WA,Seattle,98160,47.76999761,-122.3805995,10.35
Washington,WA,Seattle,98161,47.60759481,-122.354989,10.35
Washington,WA,Seattle,98164,47.60631842,-122.334931,10.35
Washington,WA,Seattle,98165,47.60999761,-122.3505996,10.35
Washington,WA,Seattle,98166,47.44470102,-122.4014549,10.35
Washington,WA,Seattle,98168,47.49144499,-122.3766875,10.35
Washington,WA,Seattle,98170,47.60999761,-122.3505996,10.35
Washington,WA,Seattle,98174,47.60456647,-122.3379227,10.35
Washington,WA,Seattle,98175,47.60999761,-122.3505996,10.35
Washington,WA,Seattle,98177,47.74286196,-122.4605544,10.35
Washington,WA,Seattle,98178,47.49780157,-122.2913731,10.35
Washington,WA,Seattle,98181,47.61151637,-122.3411689,10.35
Washington,WA,Seattle,98184,47.60859698,-122.5046048,0
Washington,WA,Seattle,98185,47.60607571,-122.3535953,10.35
Washington,WA,Seattle,98188,47.44872912,-122.319529,10.35
Washington,WA,Seattle,98189,47.60859698,-122.5046048,0
Washington,WA,Seattle,98190,47.60999761,-122.3505996,10.35
Washington,WA,Seattle,98191,47.61262681,-122.3547945,10.35
Washington,WA,Seattle,98194,47.60999761,-122.3505996,10.35
Washington,WA,Seattle,98195,47.65400756,-122.3310331,10.35
Washington,WA,Seattle,98198,47.38200657,-122.3519955,10.35
Washington,WA,Seattle,98199,47.65142713,-122.4499271,10.35
Districrt of Columbia,DC,Washington,20001,38.91070269,-77.03810063,6
Districrt of Columbia,DC,Washington,20002,38.90840616,-77.01814405,6
Districrt of Columbia,DC,Washington,20003,38.87755646,-77.0281842,6
Districrt of Columbia,DC,Washington,20004,38.88901136,-77.0738094,6
Districrt of Columbia,DC,Washington,20005,38.90316765,-77.04209339,6
Districrt of Columbia,DC,Washington,20006,38.8977186,-77.05175444,6
Districrt of Columbia,DC,Washington,20007,38.90999576,-77.11882705,6
Districrt of Columbia,DC,Washington,20008,38.93434551,-77.09954485,6
Districrt of Columbia,DC,Washington,20009,38.92196619,-77.05954613,6
Districrt of Columbia,DC,Washington,20010,38.93348196,-77.07264075,6
Districrt of Columbia,DC,Washington,20011,38.95118491,-77.0609976,6
Districrt of Columbia,DC,Washington,20012,38.98151081,-77.06974365,6
Districrt of Columbia,DC,Washington,20013,38.89830937,-77.01122022,6
Districrt of Columbia,DC,Washington,20015,38.97131326,-77.10623405,6
Districrt of Columbia,DC,Washington,20016,38.93716546,-77.13427195,6
Districrt of Columbia,DC,Washington,20017,38.93851079,-77.01390713,6
Districrt of Columbia,DC,Washington,20018,38.92839026,-77.01214725,6
Districrt of Columbia,DC,Washington,20019,38.89290926,-76.9834731,6
Districrt of Columbia,DC,Washington,20020,38.86228091,-77.01349585,6
Districrt of Columbia,DC,Washington,20024,38.86789069,-77.04490598,6
Districrt of Columbia,DC,Washington,20026,38.88382072,-77.02863897,6
Districrt of Columbia,DC,Washington,20027,38.89999764,-77.00059958,6
Districrt of Columbia,DC,Washington,20029,38.88999764,-76.97059958,6
Districrt of Columbia,DC,Washington,20030,38.86136647,-76.97048222,6
Districrt of Columbia,DC,Washington,20032,38.83227541,-77.04251735,6
Districrt of Columbia,DC,Washington,20033,38.89999764,-77.06059958,6
Districrt of Columbia,DC,Washington,20035,38.89999764,-77.06059958,6
Districrt of Columbia,DC,Washington,20036,38.9068323,-77.05192279,6
Districrt of Columbia,DC,Washington,20037,38.90050099,-77.07428728,6
Districrt of Columbia,DC,Washington,20038,38.89999764,-77.05059958,6
Districrt of Columbia,DC,Washington,20039,38.96572157,-77.01232297,6
Districrt of Columbia,DC,Washington,20040,38.96686537,-77.02971382,6
Districrt of Columbia,DC,Washington,20041,38.89329108,-77.52234554,6
Districrt of Columbia,DC,Washington,20042,38.91999769,-77.01059958,6
Districrt of Columbia,DC,Washington,20043,38.90351077,-77.03508762,6
Districrt of Columbia,DC,Washington,20044,38.88999764,-77.05059958,6
Districrt of Columbia,DC,Washington,20045,38.89699402,-77.03383072,6
Districrt of Columbia,DC,Washington,20046,38.89363867,-77.17938485,0
Districrt of Columbia,DC,Washington,20047,38.95867884,-77.10894518,6
Districrt of Columbia,DC,Washington,20049,38.89639377,-77.02283187,6
Districrt of Columbia,DC,Washington,20051,38.89363867,-77.17938485,0
Districrt of Columbia,DC,Washington,20052,38.89880684,-77.0526182,6
Districrt of Columbia,DC,Washington,20053,38.88264554,-77.03133128,6
Districrt of Columbia,DC,Washington,20055,38.90157534,-77.04049308,6
Districrt of Columbia,DC,Washington,20056,38.91606237,-77.03429347,6
Districrt of Columbia,DC,Washington,20057,38.90825284,-77.07984285,6
Districrt of Columbia,DC,Washington,20058,38.91999769,-77.01059958,6
Districrt of Columbia,DC,Washington,20059,38.9209396,-77.02991074,6
Districrt of Columbia,DC,Washington,20060,38.91744407,-77.02289702,6
Districrt of Columbia,DC,Washington,20061,38.89937189,-77.05430828,6
Districrt of Columbia,DC,Washington,20062,38.90059312,-77.04016897,6
Districrt of Columbia,DC,Washington,20063,38.90556494,-77.06724488,6
Districrt of Columbia,DC,Washington,20064,38.93593149,-77.00425735,6
Districrt of Columbia,DC,Washington,20065,38.89946629,-77.02730728,6
Districrt of Columbia,DC,Washington,20066,38.91644909,-77.01503268,6
Districrt of Columbia,DC,Washington,20067,38.91999769,-77.01059958,6
Districrt of Columbia,DC,Washington,20068,38.89999764,-77.06059958,6
Districrt of Columbia,DC,Washington,20069,38.91999769,-77.01059958,6
Districrt of Columbia,DC,Washington,20070,38.91999769,-77.01059958,6
Districrt of Columbia,DC,Washington,20071,38.90471104,-77.05524028,6
Districrt of Columbia,DC,Washington,20073,38.89882644,-77.05442608,6
Districrt of Columbia,DC,Washington,20074,38.91999769,-77.01059958,6
Districrt of Columbia,DC,Washington,20075,38.91999769,-77.01059958,6
Districrt of Columbia,DC,Washington,20076,38.95867884,-77.10894518,6
Districrt of Columbia,DC,Washington,20077,38.91999769,-77.01059958,6
Districrt of Columbia,DC,Washington,20078,38.91999769,-77.01059958,6
Districrt of Columbia,DC,Washington,20080,38.91999769,-77.01059958,6
Districrt of Columbia,DC,Washington,20081,38.89976074,-77.04766188,6
Districrt of Columbia,DC,Washington,20082,38.91999769,-77.01059958,6
Districrt of Columbia,DC,Washington,20090,38.91999769,-77.01059958,6
Districrt of Columbia,DC,Washington,20091,38.89999764,-77.06059958,6
Districrt of Columbia,DC,Washington,20097,38.89363867,-77.17938485,0
Districrt of Columbia,DC,Washington,20098,38.89363867,-77.17938485,0
Districrt of Columbia,DC,Washington,20201,38.88627657,-77.01813127,6
Districrt of Columbia,DC,Washington,20202,38.88679462,-77.02133857,6
Districrt of Columbia,DC,Washington,20203,38.90556494,-77.06724488,6
Districrt of Columbia,DC,Washington,20204,38.88724742,-77.01691737,6
Districrt of Columbia,DC,Washington,20206,38.91999769,-77.01059958,6
Districrt of Columbia,DC,Washington,20207,38.91999769,-77.01059958,6
Districrt of Columbia,DC,Washington,20208,38.89699597,-77.01381247,6
Districrt of Columbia,DC,Washington,20210,38.89332292,-77.01694737,6
Districrt of Columbia,DC,Washington,20211,38.90040012,-77.01248947,6
Districrt of Columbia,DC,Washington,20212,38.89802992,-77.01118422,6
Districrt of Columbia,DC,Washington,20213,38.89308367,-77.01725617,6
Districrt of Columbia,DC,Washington,20214,38.91999769,-77.01059958,6
Districrt of Columbia,DC,Washington,20215,38.89308372,-77.01697992,6
Districrt of Columbia,DC,Washington,20216,38.89307217,-77.01668277,6
Districrt of Columbia,DC,Washington,20217,38.89546432,-77.01741952,6
Districrt of Columbia,DC,Washington,20218,38.90247184,-77.06554778,6
Districrt of Columbia,DC,Washington,20219,38.88563689,-77.01689305,6
Districrt of Columbia,DC,Washington,20220,38.89884287,-77.04352732,6
Districrt of Columbia,DC,Washington,20221,38.89656224,-77.03963578,6
Districrt of Columbia,DC,Washington,20222,38.89529584,-77.03581985,6
Districrt of Columbia,DC,Washington,20223,38.87740481,-77.06874345,6
Districrt of Columbia,DC,Washington,20224,38.89341822,-77.02961007,6
Districrt of Columbia,DC,Washington,20226,38.89621766,-77.0719805,6
Districrt of Columbia,DC,Washington,20227,38.88445247,-77.03536397,6
Districrt of Columbia,DC,Washington,20228,38.88565797,-77.03415407,6
Districrt of Columbia,DC,Washington,20229,38.8916112,-77.03871879,6
Districrt of Columbia,DC,Washington,20230,38.89337967,-77.03539797,6
Districrt of Columbia,DC,Washington,20232,38.91999769,-77.01059958,6
Districrt of Columbia,DC,Washington,20233,38.91999769,-77.01059958,6
Districrt of Columbia,DC,Washington,20235,38.91442474,-77.06657298,6
Districrt of Columbia,DC,Washington,20237,38.88684462,-77.01924722,6
Districrt of Columbia,DC,Washington,20238,38.89999764,-77.06059958,6
Districrt of Columbia,DC,Washington,20239,38.89649747,-77.02793982,6
Districrt of Columbia,DC,Washington,20240,38.89376057,-77.04590982,6
Districrt of Columbia,DC,Washington,20241,38.89613029,-77.07207578,6
Districrt of Columbia,DC,Washington,20242,38.89362856,-77.05538905,6
Districrt of Columbia,DC,Washington,20244,38.91999769,-77.01059958,6
Districrt of Columbia,DC,Washington,20245,38.89297142,-77.04679747,6
Districrt of Columbia,DC,Washington,20250,38.88677532,-77.03261652,6
Districrt of Columbia,DC,Washington,20251,38.88527892,-77.02757232,6
Districrt of Columbia,DC,Washington,20252,38.89363867,-77.17938485,6
Districrt of Columbia,DC,Washington,20254,38.88295832,-77.02147777,6
Districrt of Columbia,DC,Washington,20260,38.90127054,-77.03351243,6
Districrt of Columbia,DC,Washington,20261,38.88377562,-77.02904837,6
Districrt of Columbia,DC,Washington,20262,38.91999769,-77.01059958,6
Districrt of Columbia,DC,Washington,20265,38.91999769,-77.01059958,6
Districrt of Columbia,DC,Washington,20266,38.91999769,-77.01059958,6
Districrt of Columbia,DC,Washington,20268,38.90206137,-77.02816437,6
Districrt of Columbia,DC,Washington,20270,38.89826184,-77.06235298,6
Districrt of Columbia,DC,Washington,20277,38.91999769,-77.01059958,6
Districrt of Columbia,DC,Washington,20289,38.88415114,-77.04654958,6
Districrt of Columbia,DC,Washington,20299,38.89999764,-77.06059958,6
Districrt of Columbia,DC,Washington,20301,38.87100624,-77.07656898,6
Districrt of Columbia,DC,Washington,20303,38.87512149,-77.00598791,6
Districrt of Columbia,DC,Washington,20306,38.97248974,-77.05689638,6
Districrt of Columbia,DC,Washington,20307,38.89363867,-77.17938485,6
Districrt of Columbia,DC,Washington,20310,38.87100794,-77.07656508,6
Districrt of Columbia,DC,Washington,20314,38.89860722,-77.01910662,6
Districrt of Columbia,DC,Washington,20317,38.94221272,-77.01357662,6
Districrt of Columbia,DC,Washington,20318,38.87100854,-77.07656948,6
Districrt of Columbia,DC,Washington,20319,38.87528105,-77.02607914,6
Districrt of Columbia,DC,Washington,20330,38.87100634,-77.07656718,6
Districrt of Columbia,DC,Washington,20340,38.88684256,-77.0356935,6
Districrt of Columbia,DC,Washington,20350,38.87100474,-77.07656988,6
Districrt of Columbia,DC,Washington,20355,38.89999764,-77.06059958,6
Districrt of Columbia,DC,Washington,20370,38.91999769,-77.01059958,6
Districrt of Columbia,DC,Washington,20372,38.89499797,-77.05451912,6
Districrt of Columbia,DC,Washington,20375,38.82423305,-77.03272844,6
Districrt of Columbia,DC,Washington,20380,38.87100814,-77.07656858,6
Districrt of Columbia,DC,Washington,20389,38.91999769,-77.01059958,6
Districrt of Columbia,DC,Washington,20390,38.88028497,-76.99694612,6
Districrt of Columbia,DC,Washington,20392,38.92157054,-77.0720568,6
Districrt of Columbia,DC,Washington,20393,38.91999769,-77.01059958,6
Districrt of Columbia,DC,Washington,20394,38.91999769,-77.01059958,6
Districrt of Columbia,DC,Washington,20395,38.85999769,-76.99059958,6
Districrt of Columbia,DC,Washington,20401,38.89989467,-77.01242427,6
Districrt of Columbia,DC,Washington,20402,38.89992677,-77.01266102,6
Districrt of Columbia,DC,Washington,20403,38.89970752,-77.01228352,6
Districrt of Columbia,DC,Washington,20404,38.89993162,-77.01230557,6
Districrt of Columbia,DC,Washington,20405,38.89667342,-77.04516077,6
Districrt of Columbia,DC,Washington,20406,38.91414459,-77.06404818,6
Districrt of Columbia,DC,Washington,20407,38.88539612,-77.02504157,6
Districrt of Columbia,DC,Washington,20408,38.89298502,-77.02551527,6
Districrt of Columbia,DC,Washington,20409,38.89363867,-77.17938485,6
Districrt of Columbia,DC,Washington,20410,38.88383337,-77.02525052,6
Districrt of Columbia,DC,Washington,20411,38.88346432,-77.02539827,6
Districrt of Columbia,DC,Washington,20412,38.88367692,-77.02536737,6
Districrt of Columbia,DC,Washington,20413,38.88402269,-77.04257488,6
Districrt of Columbia,DC,Washington,20414,38.88402269,-77.04257488,6
Districrt of Columbia,DC,Washington,20415,38.89447882,-77.04692047,6
Districrt of Columbia,DC,Washington,20416,38.88460447,-77.01844312,6
Districrt of Columbia,DC,Washington,20417,38.90682399,-77.02651618,6
Districrt of Columbia,DC,Washington,20418,38.89280842,-77.05034137,6
Districrt of Columbia,DC,Washington,20419,38.90600597,-77.03992237,6
Districrt of Columbia,DC,Washington,20420,38.90079637,-77.03793297,6
Districrt of Columbia,DC,Washington,20421,38.90127824,-77.06058818,6
Districrt of Columbia,DC,Washington,20422,38.92884429,-77.0147078,6
Districrt of Columbia,DC,Washington,20423,38.88375387,-77.01974452,6
Districrt of Columbia,DC,Washington,20424,38.90246734,-77.05260038,6
Districrt of Columbia,DC,Washington,20425,38.89808862,-77.02714727,6
Districrt of Columbia,DC,Washington,20426,38.90154482,-77.00995472,6
Districrt of Columbia,DC,Washington,20427,38.90216637,-77.04957852,6
Districrt of Columbia,DC,Washington,20428,38.91449774,-77.06672058,6
Districrt of Columbia,DC,Washington,20429,38.89703732,-77.04256127,6
Districrt of Columbia,DC,Washington,20431,38.89896107,-77.04677467,6
Districrt of Columbia,DC,Washington,20433,38.90040049,-77.0504104,6
Districrt of Columbia,DC,Washington,20434,38.90024019,-77.05997568,6
Districrt of Columbia,DC,Washington,20435,38.91999769,-77.01059958,6
Districrt of Columbia,DC,Washington,20436,38.88296692,-77.02122452,6
Districrt of Columbia,DC,Washington,20437,38.89799234,-77.0544157,6
Districrt of Columbia,DC,Washington,20439,38.89928517,-77.03729817,6
Districrt of Columbia,DC,Washington,20440,38.90650502,-77.05306952,6
Districrt of Columbia,DC,Washington,20441,38.92349132,-77.03967692,6
Districrt of Columbia,DC,Washington,20442,38.89586552,-77.02103232,6
Districrt of Columbia,DC,Washington,20444,38.89824622,-77.01219402,6
Districrt of Columbia,DC,Washington,20447,38.91999769,-77.01059958,6
Districrt of Columbia,DC,Washington,20451,38.89484782,-77.04984322,6
Districrt of Columbia,DC,Washington,20453,38.91999769,-77.01059958,6
Districrt of Columbia,DC,Washington,20456,38.91999769,-77.01059958,6
Districrt of Columbia,DC,Washington,20460,38.89364977,-77.03158877,6
Districrt of Columbia,DC,Washington,20463,38.89648782,-77.02809972,6
Districrt of Columbia,DC,Washington,20468,38.89999764,-77.06059958,6
Districrt of Columbia,DC,Washington,20469,38.91999769,-77.01059958,6
Districrt of Columbia,DC,Washington,20470,38.89999764,-77.06059958,6
Districrt of Columbia,DC,Washington,20472,38.88450367,-77.02049842,6
Districrt of Columbia,DC,Washington,20500,38.89756972,-77.03912262,6
Districrt of Columbia,DC,Washington,20501,38.89999764,-77.06059958,6
Districrt of Columbia,DC,Washington,20502,38.89768842,-77.03960837,6
Districrt of Columbia,DC,Washington,20503,38.89941612,-77.04112797,6
Districrt of Columbia,DC,Washington,20504,38.89868979,-77.05932298,6
Districrt of Columbia,DC,Washington,20505,38.89705147,-77.04335482,6
Districrt of Columbia,DC,Washington,20506,38.89966697,-77.04149847,6
Districrt of Columbia,DC,Washington,20507,38.90399367,-77.04468812,6
Districrt of Columbia,DC,Washington,20508,38.89765937,-77.04275152,6
Districrt of Columbia,DC,Washington,20509,38.87455799,-77.04639538,6
Districrt of Columbia,DC,Washington,20510,38.89257749,-77.0118325,6
Districrt of Columbia,DC,Washington,20511,38.97999754,-77.07059958,6
Districrt of Columbia,DC,Washington,20515,38.88672459,-77.0151793,6
Districrt of Columbia,DC,Washington,20520,38.89443507,-77.05098317,6
Districrt of Columbia,DC,Washington,20521,38.89398712,-77.04984717,6
Districrt of Columbia,DC,Washington,20522,38.89441817,-77.05064557,6
Districrt of Columbia,DC,Washington,20523,38.89447402,-77.05021242,6
Districrt of Columbia,DC,Washington,20524,38.90431347,-77.04568922,6
Districrt of Columbia,DC,Washington,20525,38.91999769,-77.01059958,6
Districrt of Columbia,DC,Washington,20526,38.90405822,-77.04708277,6
Districrt of Columbia,DC,Washington,20527,38.90037522,-77.03031722,6
Districrt of Columbia,DC,Washington,20528,38.93908154,-77.0876107,6
Districrt of Columbia,DC,Washington,20529,38.89870382,-77.01537487,6
Districrt of Columbia,DC,Washington,20530,38.8965428,-77.03552859,6
Districrt of Columbia,DC,Washington,20531,38.91999769,-77.01059958,6
Districrt of Columbia,DC,Washington,20532,38.89363867,-77.17938485,0
Districrt of Columbia,DC,Washington,20533,38.90192797,-77.03537192,6
Districrt of Columbia,DC,Washington,20534,38.89451872,-77.01518317,6
Districrt of Columbia,DC,Washington,20535,38.89616995,-77.03075164,6
Districrt of Columbia,DC,Washington,20536,38.90113162,-77.02579907,6
Districrt of Columbia,DC,Washington,20537,38.91999769,-77.01059958,6
Districrt of Columbia,DC,Washington,20539,38.91999769,-77.01059958,6
Districrt of Columbia,DC,Washington,20540,38.88683382,-77.00729092,6
Districrt of Columbia,DC,Washington,20541,38.88755834,-77.02641948,6
Districrt of Columbia,DC,Washington,20542,38.94134382,-77.03106487,6
Districrt of Columbia,DC,Washington,20543,38.89091087,-77.00729612,6
Districrt of Columbia,DC,Washington,20544,38.89678697,-77.00671967,6
Districrt of Columbia,DC,Washington,20546,38.88292792,-77.01884622,6
Districrt of Columbia,DC,Washington,20547,38.88564797,-77.02030057,6
Districrt of Columbia,DC,Washington,20548,38.89906932,-77.02012772,6
Districrt of Columbia,DC,Washington,20549,38.89774572,-77.00681157,6
Districrt of Columbia,DC,Washington,20551,38.89281327,-77.04837612,6
Districrt of Columbia,DC,Washington,20552,38.89813492,-77.04236412,6
Districrt of Columbia,DC,Washington,20553,38.88688132,-77.02603337,6
Districrt of Columbia,DC,Washington,20554,38.88349707,-77.03113087,6
Districrt of Columbia,DC,Washington,20555,38.91999769,-77.01059958,6
Districrt of Columbia,DC,Washington,20557,38.88642152,-77.00798322,6
Districrt of Columbia,DC,Washington,20558,38.89363867,-77.17938485,0
Districrt of Columbia,DC,Washington,20559,38.88630602,-77.00655842,6
Districrt of Columbia,DC,Washington,20560,38.89372239,-77.03383275,6
Districrt of Columbia,DC,Washington,20565,38.89147349,-77.02369665,6
Districrt of Columbia,DC,Washington,20566,38.89549049,-77.05655171,6
Districrt of Columbia,DC,Washington,20570,38.90332912,-77.03403732,6
Districrt of Columbia,DC,Washington,20571,38.90078242,-77.03701987,6
Districrt of Columbia,DC,Washington,20572,38.90294812,-77.03338137,6
Districrt of Columbia,DC,Washington,20573,38.90039787,-77.01202292,6
Districrt of Columbia,DC,Washington,20575,38.89915344,-77.05861438,6
Districrt of Columbia,DC,Washington,20576,38.89836674,-77.05082328,6
Districrt of Columbia,DC,Washington,20577,38.89941532,-77.03315512,6
Districrt of Columbia,DC,Washington,20578,38.89999764,-77.06059958,6
Districrt of Columbia,DC,Washington,20579,38.89484764,-77.04056258,6
Districrt of Columbia,DC,Washington,20580,38.89269242,-77.02348822,6
Districrt of Columbia,DC,Washington,20581,38.90476877,-77.04846677,6
Districrt of Columbia,DC,Washington,20585,38.88621267,-77.02850787,6
Districrt of Columbia,DC,Washington,20586,38.91999769,-77.01059958,6
Districrt of Columbia,DC,Washington,20590,38.87587692,-77.00555077,6
Districrt of Columbia,DC,Washington,20591,38.88695307,-77.02554717,6
Districrt of Columbia,DC,Washington,20593,38.85576739,-77.0079612,6
Districrt of Columbia,DC,Washington,20594,38.88688247,-77.02577952,6
Districrt of Columbia,DC,Washington,20597,38.88695242,-77.02349462,6
Districrt of Columbia,DC,Washington,20599,38.88609474,-77.03654578,6
Texas,TX,Austin,73301,30.22205252,-97.75030832,8.25
Texas,TX,Austin,73344,30.17999794,-97.75059961,8.25
Texas,TX,Austin,78681,30.51577013,-97.80633283,8.25
Texas,TX,Austin,78701,30.2764035,-97.7919721,8.25
Texas,TX,Austin,78702,30.265392,-97.7555757,8.25
Texas,TX,Austin,78703,30.29709265,-97.80780715,8.25
Texas,TX,Austin,78704,30.24156255,-97.80986975,8.25
Texas,TX,Austin,78705,30.29754639,-97.75762751,8.25
Texas,TX,Austin,78708,30.39116518,-97.72571611,8.25
Texas,TX,Austin,78709,30.22999794,-97.87059961,8.25
Texas,TX,Austin,78710,30.33654834,-97.68566806,8.25
Texas,TX,Austin,78711,30.27812797,-97.74090137,8.25
Texas,TX,Austin,78712,30.28584055,-97.74490519,8.25
Texas,TX,Austin,78713,30.27999789,-97.76059961,8.25
Texas,TX,Austin,78714,30.29744879,-97.78761681,8.25
Texas,TX,Austin,78715,30.20999789,-97.82059961,8.25
Texas,TX,Austin,78716,30.27309519,-97.81918161,8.25
Texas,TX,Austin,78717,30.49370954,-97.84340728,8.25
Texas,TX,Austin,78718,30.39116518,-97.72571611,8.25
Texas,TX,Austin,78719,30.14510187,-97.75048735,8.25
Texas,TX,Austin,78720,30.42331898,-97.77688401,8.25
Texas,TX,Austin,78721,30.266055,-97.7211971,8.25
Texas,TX,Austin,78722,30.29248839,-97.73490756,8.25
Texas,TX,Austin,78723,30.30429105,-97.7278247,8.25
Texas,TX,Austin,78724,30.28861909,-97.69942834,8.25
Texas,TX,Austin,78725,30.24563022,-97.69559939,8.25
Texas,TX,Austin,78726,30.42903253,-97.88697065,8.25
Texas,TX,Austin,78727,30.42916212,-97.80321979,8.25
Texas,TX,Austin,78728,30.45247098,-97.73708765,8.25
Texas,TX,Austin,78729,30.46186261,-97.83296923,8.25
Texas,TX,Austin,78730,30.36498261,-97.91651324,8.25
Texas,TX,Austin,78731,30.34778654,-97.81146055,8.25
Texas,TX,Austin,78732,30.37719975,-97.98377879,8.25
Texas,TX,Austin,78733,30.31314768,-97.95826069,8.25
Texas,TX,Austin,78734,30.3833882,-98.03810039,8.25
Texas,TX,Austin,78735,30.2691812,-97.94445869,8.25
Texas,TX,Austin,78736,30.25483929,-98.11792343,8.25
Texas,TX,Austin,78737,30.1775092,-98.0453218,8.25
Texas,TX,Austin,78738,30.31182725,-98.2313424,8.25
Texas,TX,Austin,78739,30.17627206,-97.93328515,8.25
Texas,TX,Austin,78741,30.23190311,-97.7567467,8.25
Texas,TX,Austin,78742,30.24152805,-97.6992932,8.25
Texas,TX,Austin,78744,30.1832508,-97.8252328,8.25
Texas,TX,Austin,78745,30.20054719,-97.88184739,8.25
Texas,TX,Austin,78746,30.28826214,-97.89580779,8.25
Texas,TX,Austin,78747,30.12012983,-97.82412985,8.25
Texas,TX,Austin,78748,30.15922151,-97.91069885,8.25
Texas,TX,Austin,78749,30.20693601,-97.9022502,8.25
Texas,TX,Austin,78750,30.31308322,-97.96123292,8.25
Texas,TX,Austin,78751,30.31012194,-97.74294851,8.25
Texas,TX,Austin,78752,30.2684236,-97.80425184,8.25
Texas,TX,Austin,78753,30.38855264,-97.75625579,8.25
Texas,TX,Austin,78754,30.36515411,-97.72478864,8.25
Texas,TX,Austin,78755,30.35370719,-97.77431801,8.25
Texas,TX,Austin,78756,30.32072339,-97.75864196,8.25
Texas,TX,Austin,78757,30.35466854,-97.77528515,8.25
Texas,TX,Austin,78758,30.38386304,-97.74844205,8.25
Texas,TX,Austin,78759,30.39898814,-97.84088329,8.25
Texas,TX,Austin,78760,30.21402389,-97.75486071,8.25
Texas,TX,Austin,78761,30.33345734,-97.71946861,8.25
Texas,TX,Austin,78762,30.26164064,-97.74279921,8.25
Texas,TX,Austin,78763,30.29999794,-97.79059961,8.25
Texas,TX,Austin,78764,30.26999789,-97.76059961,8.25
Texas,TX,Austin,78765,30.30405044,-97.76435221,8.25
Texas,TX,Austin,78766,30.35392974,-97.75665521,8.25
Texas,TX,Austin,78767,30.26941534,-97.76029361,8.25
Texas,TX,Austin,78768,30.26999789,-97.76059961,8.25
Texas,TX,Austin,78772,30.21869635,-97.75296436,8.25
Texas,TX,Austin,78773,30.32999789,-97.72059961,8.25
Texas,TX,Austin,78774,30.27867454,-97.75928311,8.25
Texas,TX,Austin,78778,30.27689734,-97.76003851,8.25
Texas,TX,Austin,78779,30.31611814,-97.77557621,8.25
Texas,TX,Austin,78780,30.29570088,-98.06262231,0
Texas,TX,Austin,78781,30.29570088,-98.06262231,0
Texas,TX,Austin,78783,30.26999789,-97.76059961,8.25
Texas,TX,Austin,78785,30.29570088,-98.06262231,0
Texas,TX,Austin,78786,30.29570088,-98.06262231,0
Texas,TX,Austin,78788,30.29570088,-98.06262231,0
Texas,TX,Austin,78789,30.29570088,-98.06262231,0
Texas,TX,Austin,78798,30.29570088,-98.06262231,0
Texas,TX,Austin,78799,30.26999789,-97.76059961,8.25
Massachusetts,MA,Boston,2108,42.35796249,-71.07464668,6.25
Massachusetts,MA,Boston,2109,42.34986345,-71.18302662,6.25
Massachusetts,MA,Boston,2110,42.3011194,-71.17298277,6.25
Massachusetts,MA,Boston,2111,42.35103559,-71.07102978,6.25
Massachusetts,MA,Boston,2112,42.35999761,-71.08059957,6.25
Massachusetts,MA,Boston,2113,42.36429248,-71.0599573,6.25
Massachusetts,MA,Boston,2114,42.36363171,-71.08910262,6.25
Massachusetts,MA,Boston,2115,42.34310011,-71.11738607,6.25
Massachusetts,MA,Boston,2116,42.33700963,-71.12337211,6.25
Massachusetts,MA,Boston,2117,42.34798646,-71.09381607,6.25
Massachusetts,MA,Boston,2118,42.33705901,-71.09424207,6.25
Massachusetts,MA,Boston,2119,42.31741353,-71.14335356,6.25
Massachusetts,MA,Boston,2123,42.35049331,-71.12983387,6.25
Massachusetts,MA,Boston,2127,42.33524643,-71.07611701,6.25
Massachusetts,MA,Boston,2128,42.3725079,-71.10412631,6.25
Massachusetts,MA,Boston,2133,42.35854932,-71.06626992,6.25
Massachusetts,MA,Boston,2134,42.36019651,-71.14782857,6.25
Massachusetts,MA,Boston,2163,42.36654653,-71.1260563,6.25
Massachusetts,MA,Boston,2196,42.35999761,-71.08059957,6.25
Massachusetts,MA,Boston,2199,42.30805618,-71.14090341,6.25
Massachusetts,MA,Boston,2201,42.35822797,-71.06112692,6.25
Massachusetts,MA,Boston,2203,42.36069302,-71.06153752,6.25
Massachusetts,MA,Boston,2204,42.35999761,-71.08059957,6.25
Massachusetts,MA,Boston,2205,42.34890763,-71.06199185,6.25
Massachusetts,MA,Boston,2206,42.35999761,-71.08059957,6.25
Massachusetts,MA,Boston,2207,42.31389344,-71.29966678,0
Massachusetts,MA,Boston,2210,42.33485495,-71.13787467,6.25
Massachusetts,MA,Boston,2211,42.35999761,-71.08059957,6.25
Massachusetts,MA,Boston,2212,42.35999761,-71.08059957,6.25
Massachusetts,MA,Boston,2215,42.34326598,-71.14862206,6.25
Massachusetts,MA,Boston,2216,42.31389344,-71.29966678,0
Massachusetts,MA,Boston,2217,42.35076761,-71.09077797,6.25
Massachusetts,MA,Boston,2222,42.36371701,-71.08317767,6.25
Massachusetts,MA,Boston,2241,42.35999761,-71.08059957,6.25
Massachusetts,MA,Boston,2266,42.35999761,-71.08059957,0
Massachusetts,MA,Boston,2283,42.34999761,-71.08059957,6.25
Massachusetts,MA,Boston,2284,42.34999761,-71.08059957,6.25
Massachusetts,MA,Boston,2293,42.35999761,-71.08059957,6.25
Massachusetts,MA,Boston,2295,42.31389344,-71.29966678,0
Massachusetts,MA,Boston,2297,42.35999761,-71.08059957,6.25
Massachusetts,MA,Boston,2298,42.33999761,-71.07059957,6.25
North Carolina,NC,Charlotte,28201,35.22941166,-80.94533419,7.25
North Carolina,NC,Charlotte,28202,35.22748721,-80.86531819,7.25
North Carolina,NC,Charlotte,28203,35.20806247,-80.89825905,7.25
North Carolina,NC,Charlotte,28204,35.21482621,-80.84701209,7.25
North Carolina,NC,Charlotte,28205,35.21665263,-80.86764958,7.25
North Carolina,NC,Charlotte,28206,35.25218997,-80.86208515,7.25
North Carolina,NC,Charlotte,28207,35.19566581,-80.84686104,7.25
North Carolina,NC,Charlotte,28208,35.23587163,-80.99256052,7.25
North Carolina,NC,Charlotte,28209,35.17572987,-80.89552705,7.25
North Carolina,NC,Charlotte,28210,35.14870311,-80.95616308,7.25
North Carolina,NC,Charlotte,28211,35.17298405,-80.87449458,7.25
North Carolina,NC,Charlotte,28212,35.18618502,-80.78734055,7.25
North Carolina,NC,Charlotte,28213,35.29433161,-80.81649257,7.25
North Carolina,NC,Charlotte,28214,35.27999551,-81.03736762,7.25
North Carolina,NC,Charlotte,28215,35.25410027,-80.86366053,7.25
North Carolina,NC,Charlotte,28216,35.30137695,-80.98135817,7.25
North Carolina,NC,Charlotte,28217,35.17209584,-81.02871854,7.25
North Carolina,NC,Charlotte,28218,35.21526586,-80.80139269,7.25
North Carolina,NC,Charlotte,28219,35.20899676,-80.96005369,7.25
North Carolina,NC,Charlotte,28220,35.17581996,-80.87156649,7.25
North Carolina,NC,Charlotte,28221,35.33434585,-80.81122689,7.25
North Carolina,NC,Charlotte,28222,35.19095176,-80.81741739,7.25
North Carolina,NC,Charlotte,28223,35.30548444,-80.73836136,7.25
North Carolina,NC,Charlotte,28224,35.14999776,-80.90059959,7.25
North Carolina,NC,Charlotte,28226,35.10733912,-80.90879118,7.25
North Carolina,NC,Charlotte,28227,35.18630532,-80.81527754,7.25
North Carolina,NC,Charlotte,28228,35.23528451,-80.92588874,7.25
North Carolina,NC,Charlotte,28229,35.20285206,-80.75518529,7.25
North Carolina,NC,Charlotte,28230,35.21999771,-80.85059959,7.25
North Carolina,NC,Charlotte,28231,35.22195316,-80.85347199,7.25
North Carolina,NC,Charlotte,28232,35.22195316,-80.85347199,7.25
North Carolina,NC,Charlotte,28233,35.22195316,-80.85347199,7.25
North Carolina,NC,Charlotte,28234,35.22195316,-80.85347199,7.25
North Carolina,NC,Charlotte,28235,35.22195316,-80.85347199,7.25
North Carolina,NC,Charlotte,28236,35.22195316,-80.85347199,7.25
North Carolina,NC,Charlotte,28237,35.22195316,-80.85347199,7.25
North Carolina,NC,Charlotte,28241,35.11217361,-80.95220939,7.25
North Carolina,NC,Charlotte,28242,35.22569976,-80.86835389,7.25
North Carolina,NC,Charlotte,28243,35.22999766,-80.86059959,7.25
North Carolina,NC,Charlotte,28244,35.22459932,-80.84567187,7.25
North Carolina,NC,Charlotte,28246,35.22725866,-80.86366779,7.25
North Carolina,NC,Charlotte,28247,35.09192796,-80.86486599,7.25
North Carolina,NC,Charlotte,28250,35.20488674,-81.15180941,0
North Carolina,NC,Charlotte,28253,35.32559315,-80.80394869,7.25
North Carolina,NC,Charlotte,28255,35.22999766,-80.86059959,7.25
North Carolina,NC,Charlotte,28256,35.27945295,-80.78639289,7.25
North Carolina,NC,Charlotte,28258,35.22999766,-80.86059959,7.25
North Carolina,NC,Charlotte,28260,35.22999766,-80.86059959,7.25
North Carolina,NC,Charlotte,28262,35.32808355,-80.82958057,7.25
North Carolina,NC,Charlotte,28263,35.20999776,-80.71059959,7.25
North Carolina,NC,Charlotte,28266,35.20899676,-80.96005369,7.25
North Carolina,NC,Charlotte,28269,35.34026444,-80.87685262,7.25
North Carolina,NC,Charlotte,28270,35.10880407,-80.84400058,7.25
North Carolina,NC,Charlotte,28271,35.22999766,-80.86059959,7.25
North Carolina,NC,Charlotte,28272,35.22999766,-80.86059959,7.25
North Carolina,NC,Charlotte,28273,35.12333867,-81.01635703,7.25
North Carolina,NC,Charlotte,28274,35.18928329,-80.83914986,7.25
North Carolina,NC,Charlotte,28275,35.22999766,-80.86059959,7.25
North Carolina,NC,Charlotte,28277,35.05180209,-80.89642108,7.25
North Carolina,NC,Charlotte,28278,35.13422661,-81.08869553,7.25
North Carolina,NC,Charlotte,28280,35.22633442,-80.84566497,7.25
North Carolina,NC,Charlotte,28281,35.22649247,-80.84787992,7.25
North Carolina,NC,Charlotte,28282,35.22481352,-80.84786637,7.25
North Carolina,NC,Charlotte,28284,35.22727252,-80.84676987,7.25
North Carolina,NC,Charlotte,28285,35.22499747,-80.85004092,7.25
North Carolina,NC,Charlotte,28287,35.15000326,-80.86062099,7.25
North Carolina,NC,Charlotte,28288,35.22999766,-80.86059959,7.25
North Carolina,NC,Charlotte,28289,35.22999766,-80.86059959,7.25
North Carolina,NC,Charlotte,28290,35.22999766,-80.86059959,7.25
North Carolina,NC,Charlotte,28296,35.22999766,-80.86059959,7.25
North Carolina,NC,Charlotte,28297,35.32273865,-80.92245139,7.25
North Carolina,NC,Charlotte,28299,35.21886326,-80.83148839,7.25
ILLINOIS,IL,Chicago,60290,41.8332393,-88.06152172,0
ILLINOIS,IL,Chicago,60601,41.88167806,-87.64025902,10.25
ILLINOIS,IL,Chicago,60602,41.88261999,-87.63843473,10.25
ILLINOIS,IL,Chicago,60603,41.88170394,-87.63581168,10.25
ILLINOIS,IL,Chicago,60604,41.87783404,-87.63747168,10.25
ILLINOIS,IL,Chicago,60605,41.86551166,-87.63955557,10.25
ILLINOIS,IL,Chicago,60606,41.88291604,-87.64711973,10.25
ILLINOIS,IL,Chicago,60607,41.87471761,-87.67121737,10.25
ILLINOIS,IL,Chicago,60608,41.84980204,-87.71366011,10.25
ILLINOIS,IL,Chicago,60609,41.81321219,-87.69716202,10.25
ILLINOIS,IL,Chicago,60610,41.90239806,-87.65161247,10.25
ILLINOIS,IL,Chicago,60611,41.89592466,-87.63298847,10.25
ILLINOIS,IL,Chicago,60612,41.87922214,-87.73036356,10.25
ILLINOIS,IL,Chicago,60613,41.95787114,-87.69453596,10.25
ILLINOIS,IL,Chicago,60614,41.92318454,-87.68714651,10.25
ILLINOIS,IL,Chicago,60615,41.8444351,-87.82136716,10.25
ILLINOIS,IL,Chicago,60616,41.84253664,-87.66329501,10.25
ILLINOIS,IL,Chicago,60617,41.71519854,-87.60217502,10.25
ILLINOIS,IL,Chicago,60618,41.94748714,-87.74310451,10.25
ILLINOIS,IL,Chicago,60619,41.74488104,-87.64664207,10.25
ILLINOIS,IL,Chicago,60620,41.73976064,-87.69697747,10.25
ILLINOIS,IL,Chicago,60621,41.77539666,-87.66034707,10.25
ILLINOIS,IL,Chicago,60622,41.90413919,-87.72762811,10.25
ILLINOIS,IL,Chicago,60623,41.84474254,-87.75849601,10.25
ILLINOIS,IL,Chicago,60624,41.88053266,-87.74402847,10.25
ILLINOIS,IL,Chicago,60625,41.97204009,-87.74426151,10.25
ILLINOIS,IL,Chicago,60626,42.01067301,-87.68652297,10.25
ILLINOIS,IL,Chicago,60628,41.68882099,-87.65991707,10.25
ILLINOIS,IL,Chicago,60629,41.80356561,-87.76312825,10.25
ILLINOIS,IL,Chicago,60630,41.97281398,-87.79465001,10.25
ILLINOIS,IL,Chicago,60631,41.99947908,-87.86294651,10.25
ILLINOIS,IL,Chicago,60632,41.81348514,-87.75507192,10.25
ILLINOIS,IL,Chicago,60633,41.73852365,-87.74183819,10.25
ILLINOIS,IL,Chicago,60634,41.94592249,-87.89260679,10.25
ILLINOIS,IL,Chicago,60636,41.77602961,-87.68981857,10.25
ILLINOIS,IL,Chicago,60637,41.82649316,-87.82957267,10.25
ILLINOIS,IL,Chicago,60638,41.78616023,-87.87956418,10.25
ILLINOIS,IL,Chicago,60639,41.92290359,-87.79886466,10.25
ILLINOIS,IL,Chicago,60640,41.96925214,-87.69666351,10.25
ILLINOIS,IL,Chicago,60641,41.94784009,-87.78434901,10.25
ILLINOIS,IL,Chicago,60642,41.90337456,-87.67817007,10.25
ILLINOIS,IL,Chicago,60643,41.69630609,-87.70480087,10.25
ILLINOIS,IL,Chicago,60644,41.88010716,-87.77812947,10.25
ILLINOIS,IL,Chicago,60645,42.00845066,-87.71464812,10.25
ILLINOIS,IL,Chicago,60646,41.99849068,-87.79591001,10.25
ILLINOIS,IL,Chicago,60647,41.92078624,-87.74167056,10.25
ILLINOIS,IL,Chicago,60649,41.76836309,-87.59661257,10.25
ILLINOIS,IL,Chicago,60651,41.89926014,-87.78124096,10.25
ILLINOIS,IL,Chicago,60652,41.75135409,-87.75349157,10.25
ILLINOIS,IL,Chicago,60653,41.82324809,-87.64548496,10.25
ILLINOIS,IL,Chicago,60654,41.89468966,-87.65830102,10.25
ILLINOIS,IL,Chicago,60655,41.69535014,-87.75164207,10.25
ILLINOIS,IL,Chicago,60656,41.97195954,-87.91107969,10.25
ILLINOIS,IL,Chicago,60657,41.94103324,-87.69318206,10.25
ILLINOIS,IL,Chicago,60659,41.98799813,-87.74307201,10.25
ILLINOIS,IL,Chicago,60660,41.98775416,-87.68416052,10.25
ILLINOIS,IL,Chicago,60661,41.88223709,-87.65441823,10.25
ILLINOIS,IL,Chicago,60663,41.8332393,-88.06152172,0
ILLINOIS,IL,Chicago,60664,41.84999761,-87.67059957,10.25
ILLINOIS,IL,Chicago,60666,41.97986123,-87.94966741,10.25
ILLINOIS,IL,Chicago,60668,41.87995651,-87.65058857,10.25
ILLINOIS,IL,Chicago,60669,41.87438121,-87.65751357,10.25
ILLINOIS,IL,Chicago,60670,41.87999761,-87.66059957,10.25
ILLINOIS,IL,Chicago,60673,41.87999761,-87.66059957,10.25
ILLINOIS,IL,Chicago,60674,41.87999761,-87.65059957,10.25
ILLINOIS,IL,Chicago,60675,41.87999761,-87.66059957,10.25
ILLINOIS,IL,Chicago,60677,41.87999761,-87.66059957,10.25
ILLINOIS,IL,Chicago,60678,41.87999761,-87.66059957,10.25
ILLINOIS,IL,Chicago,60679,41.8332393,-88.06152172,0
ILLINOIS,IL,Chicago,60680,41.87999761,-87.66059957,10.25
ILLINOIS,IL,Chicago,60681,41.87985611,-87.64044657,10.25
ILLINOIS,IL,Chicago,60682,41.85999761,-87.83059957,10.25
ILLINOIS,IL,Chicago,60684,41.87999761,-87.66059957,10.25
ILLINOIS,IL,Chicago,60685,41.87999761,-87.66059957,10.25
ILLINOIS,IL,Chicago,60686,41.84995371,-87.67064157,10.25
ILLINOIS,IL,Chicago,60687,41.87999761,-87.66059957,10.25
ILLINOIS,IL,Chicago,60688,41.97147441,-87.91598197,10.25
ILLINOIS,IL,Chicago,60689,41.86999761,-87.65059957,10.25
ILLINOIS,IL,Chicago,60690,41.87999591,-87.65059637,10.25
ILLINOIS,IL,Chicago,60691,41.87999761,-87.65059957,10.25
ILLINOIS,IL,Chicago,60693,41.87999761,-87.66059957,10.25
ILLINOIS,IL,Chicago,60694,41.87999761,-87.66059957,10.25
ILLINOIS,IL,Chicago,60695,41.84999761,-87.67059957,10.25
ILLINOIS,IL,Chicago,60696,41.84999761,-87.67059957,10.25
ILLINOIS,IL,Chicago,60697,41.87999761,-87.66059957,10.25
ILLINOIS,IL,Chicago,60699,41.87309883,-87.64241435,10.25
ILLINOIS,IL,Chicago,60701,41.97147441,-87.91598197,10.25
ILLINOIS,IL,Chicago,60707,41.92326109,-87.85040996,10.25
ILLINOIS,IL,Chicago,60803,41.67130657,-87.8173708,10
ILLINOIS,IL,Chicago,60804,41.84018909,-87.79999056,10.75
ILLINOIS,IL,Chicago,60805,41.72075404,-87.74302007,10
ILLINOIS,IL,Chicago,60827,41.65324758,-87.70777635,10
Ohio,OH,Columbus,43081,40.10584771,-83.05794554,7.5
Ohio,OH,Columbus,43085,40.10098326,-83.09395284,7.5
Ohio,OH,Columbus,43201,39.99404721,-83.03992904,7.5
Ohio,OH,Columbus,43202,40.01915461,-83.05821354,7.5
Ohio,OH,Columbus,43203,39.97253163,-82.98910248,7.5
Ohio,OH,Columbus,43204,39.96241206,-83.12567849,7.5
Ohio,OH,Columbus,43205,39.95422521,-83.00369109,7.5
Ohio,OH,Columbus,43206,39.94208281,-83.01563749,7.5
Ohio,OH,Columbus,43207,39.88460629,-83.0445935,7.5
Ohio,OH,Columbus,43209,39.95369466,-82.97238814,7.5
Ohio,OH,Columbus,43210,40.00450368,-83.04456898,7.5
Ohio,OH,Columbus,43211,40.01056911,-83.00726709,7.5
Ohio,OH,Columbus,43212,39.98801566,-83.08587699,7.5
Ohio,OH,Columbus,43213,39.96915483,-82.94773884,7.5
Ohio,OH,Columbus,43214,40.05279915,-83.06305649,7.5
Ohio,OH,Columbus,43215,39.92107634,-83.14309708,7.5
Ohio,OH,Columbus,43216,39.97105018,-83.05293508,7.5
Ohio,OH,Columbus,43217,39.9158754,-83.13277363,7.5
Ohio,OH,Columbus,43218,40.01288144,-82.93204369,7.5
Ohio,OH,Columbus,43219,40.01298237,-83.00761089,7.5
Ohio,OH,Columbus,43220,40.04955515,-83.11291899,7.5
Ohio,OH,Columbus,43221,40.02988822,-83.16247239,7.5
Ohio,OH,Columbus,43222,39.96021406,-83.07843509,7.5
Ohio,OH,Columbus,43223,39.93331689,-83.12854634,7.5
Ohio,OH,Columbus,43224,40.0412282,-83.00421204,7.5
Ohio,OH,Columbus,43226,40.09283113,-83.01405248,7.5
Ohio,OH,Columbus,43227,39.94403326,-82.92752849,7.5
Ohio,OH,Columbus,43228,39.95498073,-83.21709084,7.5
Ohio,OH,Columbus,43229,40.0859607,-83.01736614,7.5
Ohio,OH,Columbus,43230,40.03447982,-82.95594379,7.5
Ohio,OH,Columbus,43231,40.0836027,-82.97781914,7.5
Ohio,OH,Columbus,43232,39.92240729,-82.95919889,7.5
Ohio,OH,Columbus,43234,40.09999763,-83.08059958,7.5
Ohio,OH,Columbus,43235,40.1072423,-83.13665783,7.5
Ohio,OH,Columbus,43236,39.96019218,-83.02063018,7.5
Ohio,OH,Columbus,43240,40.14613105,-83.02097814,7.5
Ohio,OH,Columbus,43251,39.96038202,-83.02434987,7.5
Ohio,OH,Columbus,43260,39.95999763,-83.02059958,7.5
Ohio,OH,Columbus,43265,39.98255461,-83.32046042,0
Ohio,OH,Columbus,43266,39.95999763,-83.02059958,7.5
Ohio,OH,Columbus,43268,39.95999763,-83.02059958,7.5
Ohio,OH,Columbus,43270,39.95999763,-83.02059958,7.5
Ohio,OH,Columbus,43271,39.95999763,-83.02059958,7.5
Ohio,OH,Columbus,43272,39.95999763,-83.02059958,7.5
Ohio,OH,Columbus,43279,39.95999763,-83.02059958,7.5
Ohio,OH,Columbus,43287,39.95999763,-83.02059958,7.5
Ohio,OH,Columbus,43291,39.97004844,-83.13546469,7.5
Ohio,OH,Columbus,43299,39.98255461,-83.32046042,0
Texas,TX,Dallas,75201,32.78806731,-96.819879,8.25
Texas,TX,Dallas,75202,32.78187603,-96.81499604,8.25
Texas,TX,Dallas,75203,32.74512426,-96.84263052,8.25
Texas,TX,Dallas,75204,32.80172716,-96.8082729,8.25
Texas,TX,Dallas,75205,32.8333882,-96.83558332,8.25
Texas,TX,Dallas,75206,32.83384105,-96.81291422,8.25
Texas,TX,Dallas,75207,32.78280596,-96.86180502,8.25
Texas,TX,Dallas,75208,32.75310196,-96.87877427,8.25
Texas,TX,Dallas,75209,32.8442105,-96.87393687,8.25
Texas,TX,Dallas,75210,32.76951656,-96.79018237,8.25
Texas,TX,Dallas,75211,32.7307241,-96.99373649,8.25
Texas,TX,Dallas,75212,32.77575643,-96.95757929,8.25
Texas,TX,Dallas,75214,32.8265262,-96.78769412,8.25
Texas,TX,Dallas,75215,32.75121924,-96.84157989,8.25
Texas,TX,Dallas,75216,32.71446116,-96.85120519,8.25
Texas,TX,Dallas,75217,32.70171241,-96.76865469,8.25
Texas,TX,Dallas,75218,32.8376181,-96.73958922,8.25
Texas,TX,Dallas,75219,32.80558861,-96.8338434,8.25
Texas,TX,Dallas,75220,32.85903229,-96.95321798,8.25
Texas,TX,Dallas,75221,32.78324961,-96.8188312,8.25
Texas,TX,Dallas,75222,32.77999531,-96.8205996,8.25
Texas,TX,Dallas,75223,32.79368421,-96.78848002,8.25
Texas,TX,Dallas,75224,32.71067591,-96.88483787,8.25
Texas,TX,Dallas,75225,32.86477195,-96.83291527,8.25
Texas,TX,Dallas,75226,32.78292841,-96.796936,8.25
Texas,TX,Dallas,75227,32.77103933,-96.76752269,8.25
Texas,TX,Dallas,75228,32.82825826,-96.76578913,8.25
Texas,TX,Dallas,75229,32.89188423,-96.95221633,8.25
Texas,TX,Dallas,75230,32.90137644,-96.83513412,8.25
Texas,TX,Dallas,75231,32.87646065,-96.78784682,8.25
Texas,TX,Dallas,75232,32.65817112,-96.87990163,8.25
Texas,TX,Dallas,75233,32.70731107,-96.89485685,8.25
Texas,TX,Dallas,75234,32.92446162,-96.97927813,8.25
Texas,TX,Dallas,75235,32.832718,-96.88766302,8.25
Texas,TX,Dallas,75236,32.68391847,-97.01788324,8.25
Texas,TX,Dallas,75237,32.66226762,-96.91545702,8.25
Texas,TX,Dallas,75238,32.87961795,-96.74541037,8.25
Texas,TX,Dallas,75240,32.93112129,-96.82993287,8.25
Texas,TX,Dallas,75241,32.66797468,-96.83890739,8.25
Texas,TX,Dallas,75242,32.77922427,-96.80459132,8.25
Texas,TX,Dallas,75243,32.91515509,-96.77478537,8.25
Texas,TX,Dallas,75244,32.92940369,-96.87622302,8.25
Texas,TX,Dallas,75246,32.79341988,-96.78384244,8.25
Texas,TX,Dallas,75247,32.8167898,-96.91141907,8.25
Texas,TX,Dallas,75248,32.96885594,-96.84040267,8.25
Texas,TX,Dallas,75249,32.64342277,-96.9819441,8.25
Texas,TX,Dallas,75250,32.78289281,-96.8180557,8.25
Texas,TX,Dallas,75251,32.91671448,-96.78286779,8.25
Texas,TX,Dallas,75252,32.99411473,-96.82735027,8.25
Texas,TX,Dallas,75253,32.67046607,-96.69551384,8.25
Texas,TX,Dallas,75254,32.94666264,-96.84078002,8.25
Texas,TX,Dallas,75260,32.77999781,-96.8205996,8.25
Texas,TX,Dallas,75261,32.88168328,-97.12262053,8.25
Texas,TX,Dallas,75262,32.77999781,-96.8205996,8.25
Texas,TX,Dallas,75263,32.77999781,-96.8205996,8.25
Texas,TX,Dallas,75264,32.77999781,-96.8205996,8.25
Texas,TX,Dallas,75265,32.77999781,-96.8205996,8.25
Texas,TX,Dallas,75266,32.77999781,-96.8205996,8.25
Texas,TX,Dallas,75267,32.77999781,-96.8205996,8.25
Texas,TX,Dallas,75270,32.78120142,-96.80481422,8.25
Texas,TX,Dallas,75275,32.83999781,-96.8005996,8.25
Texas,TX,Dallas,75277,32.77999781,-96.8205996,8.25
Texas,TX,Dallas,75283,32.83999781,-96.8205996,8.25
Texas,TX,Dallas,75284,32.83999781,-96.8205996,8.25
Texas,TX,Dallas,75285,32.77999781,-96.8205996,8.25
Texas,TX,Dallas,75286,32.81807211,-97.06174644,0
Texas,TX,Dallas,75287,33.00181158,-96.88449202,8.25
Texas,TX,Dallas,75301,32.77999781,-96.8205996,8.25
Texas,TX,Dallas,75303,32.77999781,-96.8205996,8.25
Texas,TX,Dallas,75310,32.81807211,-97.06174644,0
Texas,TX,Dallas,75312,32.77999781,-96.8205996,8.25
Texas,TX,Dallas,75313,32.77999781,-96.8205996,8.25
Texas,TX,Dallas,75315,32.77378981,-96.7896921,8.25
Texas,TX,Dallas,75320,32.77999781,-96.8205996,8.25
Texas,TX,Dallas,75323,32.81807211,-97.06174644,0
Texas,TX,Dallas,75326,32.85999781,-97.0005996,8.25
Texas,TX,Dallas,75336,32.68765712,-96.6092492,8.25
Texas,TX,Dallas,75339,32.70853302,-96.8226574,8.25
Texas,TX,Dallas,75342,32.80945461,-96.9101546,8.25
Texas,TX,Dallas,75353,32.81807211,-97.06174644,0
Texas,TX,Dallas,75354,32.86053341,-96.9084361,8.25
Texas,TX,Dallas,75355,32.89156911,-96.7238209,8.25
Texas,TX,Dallas,75356,32.80945461,-96.9101546,8.25
Texas,TX,Dallas,75357,32.81173081,-96.7214104,8.25
Texas,TX,Dallas,75358,32.93999781,-96.8905996,8.25
Texas,TX,Dallas,75359,32.80295281,-96.79078,8.25
Texas,TX,Dallas,75360,32.81724241,-96.7918119,8.25
Texas,TX,Dallas,75363,32.81807211,-97.06174644,0
Texas,TX,Dallas,75364,32.81807211,-97.06174644,0
Texas,TX,Dallas,75367,32.90940591,-96.7900036,8.25
Texas,TX,Dallas,75368,32.91999786,-97.0005996,8.25
Texas,TX,Dallas,75370,32.98971391,-96.8537514,8.25
Texas,TX,Dallas,75371,32.79178892,-96.77618837,8.25
Texas,TX,Dallas,75372,32.81724241,-96.7918119,8.25
Texas,TX,Dallas,75373,32.77999781,-96.8205996,8.25
Texas,TX,Dallas,75374,32.91364571,-96.7647248,8.25
Texas,TX,Dallas,75376,32.70999782,-96.8605996,8.25
Texas,TX,Dallas,75378,32.89522641,-96.9066495,8.25
Texas,TX,Dallas,75379,32.99005861,-96.8232746,8.25
Texas,TX,Dallas,75380,32.93463811,-96.8385673,8.25
Texas,TX,Dallas,75381,32.93396671,-96.9088312,8.25
Texas,TX,Dallas,75382,32.86437221,-96.7644901,8.25
Texas,TX,Dallas,75386,32.81807211,-97.06174644,0
Texas,TX,Dallas,75387,32.81807211,-97.06174644,0
Texas,TX,Dallas,75388,32.81807211,-97.06174644,0
Texas,TX,Dallas,75389,32.77999781,-96.8205996,8.25
Texas,TX,Dallas,75390,32.81178613,-96.85031974,8.25
Texas,TX,Dallas,75391,32.83999781,-96.8205996,8.25
Texas,TX,Dallas,75392,32.77999781,-96.8205996,8.25
Texas,TX,Dallas,75393,32.77999781,-96.8205996,8.25
Texas,TX,Dallas,75394,32.77999781,-96.8205996,8.25
Texas,TX,Dallas,75395,32.70999782,-96.8605996,8.25
Texas,TX,Dallas,75396,32.81807211,-97.06174644,0
Texas,TX,Dallas,75397,32.77999781,-96.8205996,8.25
Texas,TX,Dallas,75398,32.77999781,-96.8205996,8.25
Colorado,CO,Denver,80012,39.69682817,-104.8814391,8
Colorado,CO,Denver,80014,39.66208682,-104.885336,8
Colorado,CO,Denver,80022,39.87759836,-105.105735,9.25
Colorado,CO,Denver,80033,39.77469476,-105.1915255,8
Colorado,CO,Denver,80127,39.52314859,-105.3450477,8.96
Colorado,CO,Denver,80201,39.74999763,-105.0105996,8.81
Colorado,CO,Denver,80202,39.75175658,-105.0197346,8.81
Colorado,CO,Denver,80203,39.73205368,-105.0039536,8.81
Colorado,CO,Denver,80204,39.73751527,-105.0619756,8.81
Colorado,CO,Denver,80205,39.76168322,-105.0100321,8.81
Colorado,CO,Denver,80206,39.73158418,-104.9726875,8.81
Colorado,CO,Denver,80207,39.76193372,-104.9532555,8.81
Colorado,CO,Denver,80208,39.67853743,-104.9822863,8.81
Colorado,CO,Denver,80209,39.70571622,-105.0075821,8.81
Colorado,CO,Denver,80210,39.69410822,-105.0063385,8.81
Colorado,CO,Denver,80211,39.76391017,-105.059075,8.81
Colorado,CO,Denver,80212,39.77139367,-105.090016,8.81
Colorado,CO,Denver,80214,39.74332172,-105.1137311,4.5
Colorado,CO,Denver,80215,39.73975077,-105.1602096,4.5
Colorado,CO,Denver,80216,39.78718631,-105.0277589,8.81
Colorado,CO,Denver,80217,39.79048368,-104.9206465,8.81
Colorado,CO,Denver,80218,39.73236068,-104.991907,8.81
Colorado,CO,Denver,80219,39.69504172,-105.0748751,8.81
Colorado,CO,Denver,80220,39.73270872,-104.9551025,8.81
Colorado,CO,Denver,80221,39.81578361,-105.0509011,4.75
Colorado,CO,Denver,80222,39.66843512,-104.969346,8.81
Colorado,CO,Denver,80223,39.69305262,-105.0451371,8.81
Colorado,CO,Denver,80224,39.68405367,-104.9509569,8.81
Colorado,CO,Denver,80225,39.71999763,-105.1405996,4.5
Colorado,CO,Denver,80226,39.70892983,-105.1732715,4.5
Colorado,CO,Denver,80227,39.66009944,-105.1893944,4.5
Colorado,CO,Denver,80228,39.68544488,-105.2366324,4.5
Colorado,CO,Denver,80229,39.8505548,-105.0314309,4.75
Colorado,CO,Denver,80230,39.71944372,-104.9292161,8.81
Colorado,CO,Denver,80231,39.67208722,-104.9304356,8.81
Colorado,CO,Denver,80232,39.68569288,-105.1728465,4.5
Colorado,CO,Denver,80233,39.89924479,-105.0288514,4.75
Colorado,CO,Denver,80234,39.91358266,-105.0521115,4.75
Colorado,CO,Denver,80235,39.64409339,-105.1742164,4.5
Colorado,CO,Denver,80236,39.64946122,-105.0770496,8.81
Colorado,CO,Denver,80237,39.63805467,-104.9453441,8.81
Colorado,CO,Denver,80238,39.73722837,-104.9623209,8.81
Colorado,CO,Denver,80239,39.79828731,-104.9241414,8.81
Colorado,CO,Denver,80243,39.71701247,-104.9435969,8.81
Colorado,CO,Denver,80244,39.73999763,-105.0005996,8.81
Colorado,CO,Denver,80246,39.70506768,-104.9514035,8.81
Colorado,CO,Denver,80247,39.69303513,-104.9053426,4.25
Colorado,CO,Denver,80248,39.74985623,-105.0205477,8.81
Colorado,CO,Denver,80249,39.84152825,-104.8875242,8.81
Colorado,CO,Denver,80250,39.68022798,-104.9635152,8.81
Colorado,CO,Denver,80251,39.73999763,-105.0005996,0
